"id","name","abbr","code","csrc_company_type","csrc_code","csrc_desc","province","city","phone","website","email","csrc_parent_code","loc","stock_exchange_type","stock_exchange_desc"
"7d38489ceeaf8a54391af15fd14bfb15","珠海智融科技股份有限公司","智融科技",,0,"I65","软件和信息技术服务业","广东","珠海市",,,,"I","广东-珠海市",,
"93243b6cbefe7f9d51fcbe37f43c108b","北京金橙子科技股份有限公司","金橙子",,0,"I65","软件和信息技术服务业","北京","丰台区",,,,"I","北京-丰台区",,
"1ab08f5636ecb764dfc7e6f0c7f3945d","江苏康为世纪生物科技股份有限公司","康为世纪",,0,"C27","医药制造业","江苏","泰州市",,,,"C","江苏-泰州市",,
"44144392d0d8e8d0d53aa1b20997587b","上海灿瑞科技股份有限公司","灿瑞科技",,0,"C39","计算机、通信和其他电子设备制造业","上海","静安区",,,,"C","上海-静安区",,
"2465b88084c1f47fb1e0e0678298edad","南京世和基因生物技术股份有限公司","世和基因",,0,"M73","研究和试验发展","江苏","南京市",,,,"M","江苏-南京市",,
"01f33fed5699e771fd3b6355528c392c","苏州近岸蛋白质科技股份有限公司","近岸蛋白",,0,"M73","研究和试验发展","江苏","苏州市",,,,"M","江苏-苏州市",,
"8b4ae25afd319c7226e341f167c80885","南京莱斯信息技术股份有限公司IPO项目","莱斯信息",,0,"I65","软件和信息技术服务业","江苏","南京市",,,,"I","江苏-南京市",,
"c4d19a2f341106b707b2b7d6a8b5b927","珠海博雅科技股份有限公司","博雅科技",,0,"C39","计算机、通信和其他电子设备制造业","广东","珠海市",,,,"C","广东-珠海市",,
"e49e4111a77ec0d9703f567aeef23217","钰泰半导体股份有限公司","钰泰股份",,0,"I65","软件和信息技术服务业","江苏","南通市",,,,"I","江苏-南通市",,
"f6a3968d885a9add978073d8f73bce79","河北晶禾电子技术股份有限公司","晶禾电子",,0,"C39","计算机、通信和其他电子设备制造业","河北","石家庄市",,,,"C","河北-石家庄市",,
"f6a53b156f66084f8cf81435825c28d3","弈柯莱生物科技（上海）股份有限公司","弈柯莱",,0,"C27","医药制造业","上海","闵行区",,,,"C","上海-闵行区",,
"71febdc167bc7256fe82f5e6ce6be4c3","北京燕东微电子股份有限公司","燕东微",,0,"C39","计算机、通信和其他电子设备制造业","北京","朝阳区",,,,"C","北京-朝阳区",,
"4efea45cc75595f068ebd5c64509e61f","合肥埃科光电科技股份有限公司","埃科光电",,0,"C40","仪器仪表制造业","安徽","合肥市",,,,"C","安徽-合肥市",,
"b9666e93429942f78813052a8a2cf3c3","武汉长盈通光电技术股份有限公司","长盈通",,0,"C39","计算机、通信和其他电子设备制造业","湖北","武汉市",,,,"C","湖北-武汉市",,
"ba4413da6711a2664178ea96892f983f","诚瑞光学（常州）股份有限公司","诚瑞光学",,0,"C39","计算机、通信和其他电子设备制造业","江苏","常州市",,,,"C","江苏-常州市",,
"b863806a5979318be63bbad08dd97455","上海伟测半导体科技股份有限公司","伟测科技",,0,"C39","计算机、通信和其他电子设备制造业","上海","浦东新区",,,,"C","上海-浦东新区",,
"2f6007c3b9c52d91831bb1a6c5de050a","南京晶升装备股份有限公司","晶升装备",,0,"C35","专用设备制造业","江苏","南京市",,,,"C","江苏-南京市",,
"9e6736b2d1190aec0017922ae7d26b78","博创智能装备股份有限公司","博创智能",,0,"C35","专用设备制造业","广东","广州市",,,,"C","广东-广州市",,
"354c2e407686d5273603f79790cff7cc","嘉兴中润光学科技股份有限公司","中润光学",,0,"C39","计算机、通信和其他电子设备制造业","浙江","嘉兴市",,,,"C","浙江-嘉兴市",,
"498e16d1ec3c2f75f369dc9b6ce1004f","成都锐成芯微科技股份有限公司","锐成芯微",,0,"I65","软件和信息技术服务业","四川","成都市",,,,"I","四川-成都市",,
"600d162e17f414dabf7853efe2321cb2","杰华特微电子股份有限公司","杰华特",,0,"C39","计算机、通信和其他电子设备制造业","浙江","杭州市",,,,"C","浙江-杭州市",,
"783d71dded1ff5b9903a6cdec15139df","山东中创软件商用中间件股份有限公司","中创股份",,0,"I65","软件和信息技术服务业","山东","济南市",,,,"I","山东-济南市",,
"b1255d715afafbe34587c0d3e7ad06f4","碧兴物联科技（深圳）股份有限公司","碧兴科技",,0,"C40","仪器仪表制造业","广东","深圳市",,,,"C","广东-深圳市",,
"8527dfc40837b77a36340cf7882db85c","江苏华海诚科新材料股份有限公司","华海诚科",,0,"C39","计算机、通信和其他电子设备制造业","江苏","连云港市",,,,"C","江苏-连云港市",,
"efb3c54294b6763de635a3e6027c88a2","杭州中欣晶圆半导体股份有限公司","中欣晶圆",,0,"C39","计算机、通信和其他电子设备制造业","浙江","杭州市",,,,"C","浙江-杭州市",,
"5965ff99159e485cc227110a1ae21261","武汉达梦数据库股份有限公司首次公开发行股票并在科创板上市项目","达梦数据",,0,"I65","软件和信息技术服务业","湖北","武汉市",,,,"I","湖北-武汉市",,
"984ce6864432262dc03895b314f54457","浙江双元科技股份有限公司","双元科技",,0,"C35","专用设备制造业","浙江","杭州市",,,,"C","浙江-杭州市",,
"396d7630482ca480d2ea554985294f18","北京神舟航天软件技术股份有限公司","航天软件",,0,"I65","软件和信息技术服务业","北京","海淀区",,,,"I","北京-海淀区",,
"35569e79d19c05def884ec5d194f7144","宁波恒普真空科技股份有限公司","恒普科技",,0,"C35","专用设备制造业","浙江","宁波市",,,,"C","浙江-宁波市",,
"65fb538e9edd1bd204bab1839960c663","上海荣盛生物药业股份有限公司","荣盛生物",,0,"C27","医药制造业","上海","闵行区",,,,"C","上海-闵行区",,
"a164c06179d74f58508e36525b33990b","无锡日联科技股份有限公司科创板IPO项目","日联科技",,0,"C35","专用设备制造业","江苏","无锡市",,,,"C","江苏-无锡市",,
"e2ecff43c08495254caba302c0d49457","深圳市中航比特通讯技术股份有限公司","比特技术",,0,"C39","计算机、通信和其他电子设备制造业","广东","深圳市",,,,"C","广东-深圳市",,
"800c6eca5e6035a404bdd958fca69152","北京永信至诚科技股份有限公司","永信至诚",,0,"I65","软件和信息技术服务业","北京","海淀区",,,,"I","北京-海淀区",,
"2af291566b16f756f89aa460dc74c3f5","沈阳富创精密设备股份有限公司","富创精密",,0,"C35","专用设备制造业","辽宁","沈阳市",,,,"C","辽宁-沈阳市",,
"f53ad50c148bd103afe47255dc87ab9c","安徽安芯电子科技股份有限公司","安芯电子",,0,"C39","计算机、通信和其他电子设备制造业","安徽","池州市",,,,"C","安徽-池州市",,
"abbeb9eb1d53d439bf98ffaf1382fd38","中船（邯郸）派瑞特种气体股份有限公司","派瑞特气",,0,"C39","计算机、通信和其他电子设备制造业","河北","邯郸市",,,,"C","河北-邯郸市",,
"8942cca40a4266f4ea023f8529e2967f","苏州韬略生物科技股份有限公司","韬略生物",,0,"C27","医药制造业","江苏","苏州市",,,,"C","江苏-苏州市",,
"660414aceb6024c1e63a4d76cded0c64","哈尔滨国铁科技集团股份有限公司","国铁科技",,0,"C37","铁路、船舶、航空航天和其他运输设备制造业","黑龙江","哈尔滨市",,,,"C","黑龙江-哈尔滨市",,
"8e6b9bf5cf1ec2727175855b12b7109c","深圳市微源半导体股份有限公司","微源股份",,0,"I65","软件和信息技术服务业","广东","深圳市",,,,"I","广东-深圳市",,
"00b2462513e2d2de2cfb9872c58795f3","浙江艾罗网络能源技术股份有限公司首次公开发行股票并在科创板上市","艾罗能源",,0,"C38","电气机械和器材制造业","浙江","杭州市",,,,"C","浙江-杭州市",,
"009cab96b2d3387b6d502d70c91c0a39","深圳精智达技术股份有限公司","精智达",,0,"C35","专用设备制造业","广东","深圳市",,,,"C","广东-深圳市",,
"bf7fefb56087191a5111197dd14212f8","诺诚健华医药有限公司（InnoCare Pharma Limited）","诺诚健华",,0,"C27","医药制造业","境外","境外",,,,"C","境外",,
"746e51adc6b42b82c31e53aab6f3acad","桂林光隆科技集团股份有限公司","光隆科技",,0,"C39","计算机、通信和其他电子设备制造业","广西","桂林市",,,,"C","广西-桂林市",,
"3c3d53bb50d6736051a5315e9eb95df6","邦彦技术股份有限公司","邦彦技术",,0,"C39","计算机、通信和其他电子设备制造业","广东","深圳市",,,,"C","广东-深圳市",,
"c06e4dacc7d968f04f55cf73fd20fc14","上海骄成超声波技术股份有限公司","骄成股份",,0,"C35","专用设备制造业","上海","闵行区",,,,"C","上海-闵行区",,
"e72ededa3248c95a2f1d5b8240b8821b","南京磁谷科技股份有限公司","磁谷科技",,0,"C34","通用设备制造业","江苏","南京市",,,,"C","江苏-南京市",,
"e2fbb6e6da569f983a6f622755a7eb80","美芯晟科技（北京）股份有限公司","美芯晟",,0,"C39","计算机、通信和其他电子设备制造业","北京","海淀区",,,,"C","北京-海淀区",,
"f0150c1d47fc63ef1fc2b16b5ea20656","合肥颀中科技股份有限公司","颀中科技",,0,"C39","计算机、通信和其他电子设备制造业","安徽","合肥市",,,,"C","安徽-合肥市",,
"10cdeb02eb043e0c5a9ffb01ec97049b","四川百利天恒药业股份有限公司","百利天恒",,0,"C27","医药制造业","四川","成都市",,,,"C","四川-成都市",,
"7d0ae8849c77c3c574614364ed150e6c","安徽耐科装备科技股份有限公司","耐科装备",,0,"C35","专用设备制造业","安徽","铜陵市",,,,"C","安徽-铜陵市",,
"fbc47d73a0725e9d89a9be8cc441a295","江苏微导纳米科技股份有限公司","微导纳米",,0,"C35","专用设备制造业","江苏","无锡市",,,,"C","江苏-无锡市",,
"81d6e940a77f7f3c21fc038f39e488d7","赛特斯信息科技股份有限公司","赛特斯",,0,"I65","软件和信息技术服务业","江苏","南京市",,,,"I","江苏-南京市",,
"1e858b65e4fe2704a33b3444188269b4","赛恩斯环保股份有限公司","赛恩斯",,0,"N77","生态保护和环境治理业","湖南","长沙市",,,,"N","湖南-长沙市",,
"55b6aa34045dddb78635c2128865af4e","湖北万润新能源科技股份有限公司","湖北万润",,0,"C26","化学原料和化学制品制造业","湖北","十堰市",,,,"C","湖北-十堰市",,
"c2be0df01657c544b80b58ec82cbf8d0","甬矽电子（宁波）股份有限公司","甬矽电子",,0,"C39","计算机、通信和其他电子设备制造业","浙江","宁波市",,,,"C","浙江-宁波市",,
"d0564fe2f51b2f544c60d4529c23f251","浙江帕瓦新能源股份有限公司","帕瓦股份",,0,"C39","计算机、通信和其他电子设备制造业","浙江","绍兴市",,,,"C","浙江-绍兴市",,
"750ec711aa2eac01ef7b60ca2402821b","科捷智能科技股份有限公司","科捷智能",,0,"C34","通用设备制造业","山东","青岛市",,,,"C","山东-青岛市",,
"5b8b61404bdf2dc45aa25e26d4302e73","广州慧智微电子股份有限公司","慧智微",,0,"C39","计算机、通信和其他电子设备制造业","广东","广州市",,,,"C","广东-广州市",,
"171625ee3e0fea91fc846d2e9a5d0924","中信科移动通信技术股份有限公司","信科移动",,0,"C39","计算机、通信和其他电子设备制造业","湖北","武汉市",,,,"C","湖北-武汉市",,
"8131a7c224b8e4c6534a0f62dcdb129e","翌圣生物科技（上海）股份有限公司","翌圣生物",,0,"M73","研究和试验发展","上海","浦东新区",,,,"M","上海-浦东新区",,
"c03c0a66783d28b51fdc9287dba560e4","苏州浩辰软件股份有限公司","浩辰软件",,0,"I65","软件和信息技术服务业","江苏","苏州市",,,,"I","江苏-苏州市",,
"3fa0c9ddba22d77959545ba62f21af86","苏州光格科技股份有限公司","光格科技",,0,"C39","计算机、通信和其他电子设备制造业","江苏","苏州市",,,,"C","江苏-苏州市",,
"2f4ba222cc59f978756bd1c55024fc70","深圳天德钰科技股份有限公司","天德钰",,0,"I65","软件和信息技术服务业","广东","深圳市",,,,"I","广东-深圳市",,
"2470f32d7205ca5c6a5e6ceccdf24076","钜泉光电科技（上海）股份有限公司","钜泉光电",,0,"I65","软件和信息技术服务业","上海","浦东新区",,,,"I","上海-浦东新区",,
"e5346e726300c2640ac9a32015ef459d","苏州好博医疗器械股份有限公司","好博医疗",,0,"C35","专用设备制造业","江苏","苏州市",,,,"C","江苏-苏州市",,
"97fbb6721859831cddf36b5b14624793","思必驰科技股份有限公司","思必驰",,0,"I65","软件和信息技术服务业","江苏","苏州市",,,,"I","江苏-苏州市",,
"6f7112370d128255a605c2df6f2aa126","上海宣泰医药科技股份有限公司","宣泰医药",,0,"C27","医药制造业","上海","浦东新区",,,,"C","上海-浦东新区",,
"84a5c3c3db50d9e4c8d7666d4b48d3a6","北京通美晶体技术股份有限公司","北京通美",,0,"C39","计算机、通信和其他电子设备制造业","北京","通州区",,,,"C","北京-通州区",,
"7755f5df506cd1dc952834894fd30622","上海微创电生理医疗科技股份有限公司","电生理",,0,"C35","专用设备制造业","上海","浦东新区",,,,"C","上海-浦东新区",,
"0840a645a2e2980e68fab5321eed5615","北京英视睿达科技股份有限公司","英视睿达",,0,"I65","软件和信息技术服务业","北京","丰台区",,,,"I","北京-丰台区",,
"9f656f83b9f54017b9989c62e489725d","南京高华科技股份有限公司","高华科技",,0,"C39","计算机、通信和其他电子设备制造业","江苏","南京市",,,,"C","江苏-南京市",,
"c79e698170480f8513042a663de53b30","泰凌微电子（上海）股份有限公司","泰凌微",,0,"I65","软件和信息技术服务业","上海","浦东新区",,,,"I","上海-浦东新区",,
"ddbf4d63c1a639f2922319c676473b4c","深圳华大智造科技股份有限公司","华大智造",,0,"C35","专用设备制造业","广东","深圳市",,,,"C","广东-深圳市",,
"0fbd9c2ed87c2d8bf28bd19f309b5ff9","上海国微思尔芯技术股份有限公司科创板IPO项目","思尔芯",,0,"I65","软件和信息技术服务业","上海","浦东新区",,,,"I","上海-浦东新区",,
"15e6d299c76b41d009f56757dfe82ce7","烟台德邦科技股份有限公司","德邦科技",,0,"C39","计算机、通信和其他电子设备制造业","山东","烟台市",,,,"C","山东-烟台市",,
"2f48b0a0b035a68ea2cece45a51d133a","上海索辰信息科技股份有限公司","索辰科技",,0,"I65","软件和信息技术服务业","上海","浦东新区",,,,"I","上海-浦东新区",,
"af3a7a5fab337e0e0cae00d2cf8cbf05","上海奥浦迈生物科技股份有限公司","奥浦迈",,0,"M73","研究和试验发展","上海","浦东新区",,,,"M","上海-浦东新区",,
"a8a71b4e0df5b745816199fa30f89388","绍兴中芯集成电路制造股份有限公司","中芯集成",,0,"C39","计算机、通信和其他电子设备制造业","浙江","绍兴市",,,,"C","浙江-绍兴市",,
"1d2da36d88d37f7680dbf3d64ad6ba01","江苏国富氢能技术装备股份有限公司","国富氢能",,0,"C35","专用设备制造业","江苏","苏州市",,,,"C","江苏-苏州市",,
"4c7e1d636b7e5b908d10079346d8d4ac","深圳市槟城电子股份有限公司","槟城电子",,0,"C39","计算机、通信和其他电子设备制造业","广东","深圳市",,,,"C","广东-深圳市",,
"3476e8e49af6bca5f7842f3608efaf25","浙江陀曼智能科技股份有限公司首次公开发行股票并在科创板上市项目","陀曼智能",,0,"C34","通用设备制造业","浙江","绍兴市",,,,"C","浙江-绍兴市",,
"973e20de3fc144d1b3b8d585cbdd7dfc","有研半导体硅材料股份公司","有研硅",,0,"C39","计算机、通信和其他电子设备制造业","北京","顺义区",,,,"C","北京-顺义区",,
"aa07d38e0918a386dab68ab387b03762","上海治臻新能源股份有限公司","治臻股份",,0,"C38","电气机械和器材制造业","上海","浦东新区",,,,"C","上海-浦东新区",,
"b075ce744bca8e203461fee58b540a58","深圳中科飞测科技股份有限公司","中科飞测",,0,"C35","专用设备制造业","广东","深圳市",,,,"C","广东-深圳市",,
"b9609b6f279e262feeabd4d590d1f4e3","深圳市誉辰智能装备股份有限公司","誉辰智能",,0,"C35","专用设备制造业","广东","深圳市",,,,"C","广东-深圳市",,
"3c4149fe32d2bd53c43ebd4ea37e21b3","无锡中感微电子股份有限公司","中感微",,0,"C39","计算机、通信和其他电子设备制造业","江苏","无锡市",,,,"C","江苏-无锡市",,
"c405e90cc24b1722c10df65ed4d92faf","四川华丰科技股份有限公司","华丰科技",,0,"C39","计算机、通信和其他电子设备制造业","四川","绵阳市",,,,"C","四川-绵阳市",,
"bdce0e096530d8320c8ebbdbe00eb4e7","朗坤智慧科技股份有限公司","朗坤智慧",,0,"I65","软件和信息技术服务业","江苏","南京市",,,,"I","江苏-南京市",,
"6bf08e5d93f7db0c9d46d4b2a09fed6f","北京华昊中天生物医药股份有限公司","华昊中天",,0,"C27","医药制造业","北京","大兴区",,,,"C","北京-大兴区",,
"ffc5b5f226e093439be4066f122f631c","深圳市信宇人科技股份有限公司","信宇人",,0,"C35","专用设备制造业","广东","深圳市",,,,"C","广东-深圳市",,
"9b8bb5d571807a0ae8de2f13717fe0c4","河南嘉晨智能控制股份有限公司","嘉晨智能",,0,"C40","仪器仪表制造业","河南","郑州市",,,,"C","河南-郑州市",,
"383273e978a2dbe34e1e71a15f5ca556","北京集创北方科技股份有限公司","集创北方",,0,"C39","计算机、通信和其他电子设备制造业","北京","大兴区",,,,"C","北京-大兴区",,
"be926dc6cfe942d34028649f04d99509","上海捷氢科技股份有限公司","捷氢科技",,0,"C38","电气机械和器材制造业","上海","嘉定区",,,,"C","上海-嘉定区",,
"eb987a3fbca2c46d3c0943dbb494d484","杭州联川生物技术股份有限公司","联川生物",,0,"M74","专业技术服务业","浙江","杭州市",,,,"M","浙江-杭州市",,
"553125f9b311ee441694ed840d191325","明峰医疗系统股份有限公司","明峰医疗",,0,"C35","专用设备制造业","浙江","杭州市",,,,"C","浙江-杭州市",,
"7ce6bb380874339a159cf90b3e5f9e22","恒烁半导体（合肥）股份有限公司","恒烁股份",,0,"C39","计算机、通信和其他电子设备制造业","安徽","合肥市",,,,"C","安徽-合肥市",,
"cc707d5a8f068f7fdf73739b42f44a3b","澳斯康生物（南通）股份有限公司","澳斯康",,0,"M73","研究和试验发展","江苏","南通市",,,,"M","江苏-南通市",,
"024c0b5bc992721ad5a584369b578352","上海司南卫星导航技术股份有限公司","司南导航",,0,"C39","计算机、通信和其他电子设备制造业","上海","嘉定区",,,,"C","上海-嘉定区",,
"faa3c97ca2344da672d72ba1a405c15c","航天南湖电子信息技术股份有限公司","航天南湖",,0,"C39","计算机、通信和其他电子设备制造业","湖北","荆州市",,,,"C","湖北-荆州市",,
"76c40fb680289bcba7fe2b10ed003fba","上海联影医疗科技股份有限公司","联影医疗",,0,"C35","专用设备制造业","上海","嘉定区",,,,"C","上海-嘉定区",,
"f89e1fd6f394640ef0b09fb4068a5d66","贵州振华风光半导体股份有限公司","振华风光",,0,"C39","计算机、通信和其他电子设备制造业","贵州","贵阳市",,,,"C","贵州-贵阳市",,
"c32c4fcc3f7324667fa6834bd0f7f352","昆仑太科（北京）技术股份有限公司","昆仑太科",,0,"I65","软件和信息技术服务业","北京","海淀区",,,,"I","北京-海淀区",,
"5e404671abc06f130c9781eab6639018","以萨技术股份有限公司","以萨技术",,0,"I65","软件和信息技术服务业","山东","青岛市",,,,"I","山东-青岛市",,
"abe64c9604a26ca52f65670b7cc31e07","上海康鹏科技股份有限公司","康鹏科技",,0,"C26","化学原料和化学制品制造业","上海","普陀区",,,,"C","上海-普陀区",,
"5e2a2c8feeaf1b6dcdb0a6a0b17cfa13","北京朗视仪器股份有限公司首次公开发行股票并在科创板上市","朗视仪器",,0,"C35","专用设备制造业","北京","海淀区",,,,"C","北京-海淀区",,
"beccde5f2bc9c27d8062bb0762f9166b","北京天玛智控科技股份有限公司","天玛智控",,0,"C40","仪器仪表制造业","北京","顺义区",,,,"C","北京-顺义区",,
"555b919f88835e2b21b17775b6f3b4c2","上海昱章电气股份有限公司","昱章电气",,0,"C38","电气机械和器材制造业","上海","松江区",,,,"C","上海-松江区",,
"9a4eb1d190694247e3cc8f934d50a3e1","珠海云洲智能科技股份有限公司","云洲智能",,0,"C34","通用设备制造业","广东","珠海市",,,,"C","广东-珠海市",,
"a10de01a4052839244f42690cd8c9007","西安高压电器研究院股份有限公司","西高院",,0,"M74","专业技术服务业","陕西","西安市",,,,"M","陕西-西安市",,
"06de1f1ce476d41779a00d2c3a554495","远江盛邦（北京）网络安全科技股份有限公司科创板IPO项目","盛邦安全",,0,"I65","软件和信息技术服务业","北京","海淀区",,,,"I","北京-海淀区",,
"09e89155974a00165738c68492adf44e","上海聚威新材料股份有限公司","聚威新材",,0,"C29","橡胶和塑料制品业","上海","松江区",,,,"C","上海-松江区",,
"f1ba2760440a9480c3102c0b1af21a04","上海兰宝传感科技股份有限公司","兰宝传感",,0,"C40","仪器仪表制造业","上海","奉贤区",,,,"C","上海-奉贤区",,
"9600d8ae222186a12e49e76e5636b731","敏实集团有限公司","敏实集团",,0,"C36","汽车制造业","境外","境外",,,,"C","境外",,
"5225a6d71e5a4cacff54ce8775098e96","苏州盛科通信股份有限公司","盛科通信",,0,"C39","计算机、通信和其他电子设备制造业","江苏","苏州市",,,,"C","江苏-苏州市",,
"dbf5ea7c687588cf00fc58d9a78f7126","重庆山外山血液净化技术股份有限公司","山外山",,0,"C35","专用设备制造业","重庆","渝北区",,,,"C","重庆-渝北区",,
"1ece39da115f86c32fc7693af1a55fb9","苏州赛芯电子科技股份有限公司","赛芯电子",,0,"C39","计算机、通信和其他电子设备制造业","江苏","苏州市",,,,"C","江苏-苏州市",,
"02d2e74ce33fed9f382c6b19259e6bda","广州必贝特医药股份有限公司","必贝特",,0,"C27","医药制造业","广东","广州市",,,,"C","广东-广州市",,
"5ce53e473941ee9267c7c8cf2e27d31c","湖南华曙高科技股份有限公司","华曙高科",,0,"C34","通用设备制造业","湖南","长沙市",,,,"C","湖南-长沙市",,
"a2b865752973f2d8e5acb4fa9b307de7","上海新相微电子股份有限公司","新相微",,0,"C39","计算机、通信和其他电子设备制造业","上海","徐汇区",,,,"C","上海-徐汇区",,
"5596eb405d8d1bda2bcfbb5fc5766099","深圳威迈斯新能源股份有限公司","威迈斯",,0,"C36","汽车制造业","广东","深圳市",,,,"C","广东-深圳市",,
"1b7b07da6706e245a2076aed61b3c971","合肥新汇成微电子股份有限公司","汇成股份",,0,"C39","计算机、通信和其他电子设备制造业","安徽","合肥市",,,,"C","安徽-合肥市",,
"f7458172cdfe18ac480a3bd1956dad34","深圳市路维光电股份有限公司","路维光电",,0,"C39","计算机、通信和其他电子设备制造业","广东","深圳市",,,,"C","广东-深圳市",,
"b04257b6766013a1fa5a840662af4a94","江苏帝奥微电子股份有限公司","帝奥微",,0,"C39","计算机、通信和其他电子设备制造业","江苏","南通市",,,,"C","江苏-南通市",,
"ee6651642a3d8e27d434d252a08d04f8","广州天极电子科技股份有限公司","天极科技",,0,"C39","计算机、通信和其他电子设备制造业","广东","广州市",,,,"C","广东-广州市",,
"5ee33c64c0511a8ea01b1b51678cfe77","北京吉威空间信息股份有限公司","吉威空间",,0,"I65","软件和信息技术服务业","北京","石景山区",,,,"I","北京-石景山区",,
"08433203e6b8f18d00fd5f6961eb3b39","北平机床（浙江）股份有限公司","北平机床",,0,"C34","通用设备制造业","浙江","台州市",,,,"C","浙江-台州市",,
"b74b7b75772263c49e2010758c8f10b2","无锡市德科立光电子技术股份有限公司","德科立",,0,"C39","计算机、通信和其他电子设备制造业","江苏","无锡市",,,,"C","江苏-无锡市",,
"e4a9f06174857a4c29c13a97dd6828ee","南京麦澜德医疗科技股份有限公司","麦澜德",,0,"C35","专用设备制造业","江苏","南京市",,,,"C","江苏-南京市",,
"88789117e44d95c86603425756f96f8a","上海盟科药业股份有限公司","盟科药业",,0,"C27","医药制造业","上海","浦东新区",,,,"C","上海-浦东新区",,
"aa9367f7d8ac8b7e9371b1fdb8372a42","福建福特科光电股份有限公司","福特科",,0,"C39","计算机、通信和其他电子设备制造业","福建","福州市",,,,"C","福建-福州市",,
"d77b7f540487a083c8687932172a6785","常州时创能源股份有限公司","时创能源",,0,"C39","计算机、通信和其他电子设备制造业","江苏","常州市",,,,"C","江苏-常州市",,
"ae3c017bf3438412cfff249f9369cf9d","杭州新中大科技股份有限公司","新中大",,0,"I65","软件和信息技术服务业","浙江","杭州市",,,,"I","浙江-杭州市",,
"f626205719c4b59b2f12a6fad0dbff4c","中巨芯科技股份有限公司","中巨芯",,0,"C39","计算机、通信和其他电子设备制造业","浙江","衢州市",,,,"C","浙江-衢州市",,
"e79cd855d03a38de9ca1b5c371e8eb5b","北京晶品特装科技股份有限公司","晶品特装",,0,"C35","专用设备制造业","北京","昌平区",,,,"C","北京-昌平区",,
"a6e597c82f27eeb5ced8beef8348b102","哈尔滨市科佳通用机电股份有限公司","科佳股份",,0,"C37","铁路、船舶、航空航天和其他运输设备制造业","黑龙江","哈尔滨市",,,,"C","黑龙江-哈尔滨市",,
"3a3577bc32f8bf2f1f527e9858e5a2d5","安徽芯动联科微系统股份有限公司","芯动联科",,0,"C39","计算机、通信和其他电子设备制造业","安徽","蚌埠市",,,,"C","安徽-蚌埠市",,
"63b060a99bbf184719a69f242e146a88","成都佳驰电子科技股份有限公司","佳驰科技",,0,"C41","其他制造业","四川","成都市",,,,"C","四川-成都市",,
"b2e62754c8706c39e2cab17fb4d970db","湖南航天环宇通信科技股份有限公司","航天环宇",,0,"C37","铁路、船舶、航空航天和其他运输设备制造业","湖南","长沙市",,,,"C","湖南-长沙市",,
"73a73defd0a12fa260029fd3b4fe7521","杭州安杰思医学科技股份有限公司","安杰思",,0,"C35","专用设备制造业","浙江","杭州市",,,,"C","浙江-杭州市",,
"0152216d36b6f25ba147e79b0889eece","无锡市好达电子股份有限公司首次公开发行股票并在科创板上市","好达电子",,0,"C39","计算机、通信和其他电子设备制造业","江苏","无锡市",,,,"C","江苏-无锡市",,
"8e314d9f423cd38ff1698d11918e6a16","杭州晶华微电子股份有限公司","晶华微",,0,"I65","软件和信息技术服务业","浙江","杭州市",,,,"I","浙江-杭州市",,
"6de0e25d8e0690e6919de0c14a6568a0","苏州锴威特半导体股份有限公司","锴威特",,0,"C39","计算机、通信和其他电子设备制造业","江苏","苏州市",,,,"C","江苏-苏州市",,
"9c68c54beffd648aee5f038802bb70d3","深圳市柏瑞凯电子科技股份有限公司","柏瑞凯",,0,"C39","计算机、通信和其他电子设备制造业","广东","深圳市",,,,"C","广东-深圳市",,
"8e1671570aeecb7a5d2cf2e3415e00c4","传神语联网网络科技股份有限公司","传神语联",,0,"I65","软件和信息技术服务业","湖北","武汉市",,,,"I","湖北-武汉市",,
"22938276e374fd61fa24ffb054310c9c","上海丛麟环保科技股份有限公司","丛麟环保",,0,"N77","生态保护和环境治理业","上海","闵行区",,,,"N","上海-闵行区",,
"09397c8916fe19f0b529a093882c5640","上海英方软件股份有限公司","英方软件",,0,"I65","软件和信息技术服务业","上海","黄浦区",,,,"I","上海-黄浦区",,
"afda70aa9007b3f117ad5523ae81594a","广州安凯微电子股份有限公司","安凯微",,0,"C39","计算机、通信和其他电子设备制造业","广东","广州市",,,,"C","广东-广州市",,
"c1da033d8af99b2ba25d25f4e88c73b9","力品药业（厦门）股份有限公司","力品药业",,0,"C27","医药制造业","福建","厦门市",,,,"C","福建-厦门市",,
"607d3e0a606c8adad0409b120128bea1","荣信汇科电气股份有限公司","荣信汇科",,0,"C38","电气机械和器材制造业","辽宁","鞍山市",,,,"C","辽宁-鞍山市",,
"cbb5d65e957c359574b3be69d06493ed","北京清大科越股份有限公司","清大科越",,0,"I65","软件和信息技术服务业","北京","朝阳区",,,,"I","北京-朝阳区",,
"cb0e6b7e1d0a572ee688af8436c52908","武汉新华扬生物股份有限公司","新华扬",,0,"C14","食品制造业","湖北","武汉市",,,,"C","湖北-武汉市",,
"cf7620b171edb51cb1e64ba9e89cdd45","浙江海正生物材料股份有限公司","海正生物",,0,"C28","化学纤维制造业","浙江","台州市",,,,"C","浙江-台州市",,
"7f8c29b0e092f02764f7910a1995039f","北京浩瀚深度信息技术股份有限公司","浩瀚深度",,0,"I65","软件和信息技术服务业","北京","海淀区",,,,"I","北京-海淀区",,
"c1663b285e30070b0bf249fce83e260d","树根互联股份有限公司","树根互联",,0,"I65","软件和信息技术服务业","广东","广州市",,,,"I","广东-广州市",,
"fec892794dfbcbc1d43828cdc3417207","北京华卓精科科技股份有限公司","华卓精科",,0,"C35","专用设备制造业","北京","大兴区",,,,"C","北京-大兴区",,
"c556ba7185a635e68e5539a10ad43e07","旷视科技IPO项目","旷视科技",,0,"I65","软件和信息技术服务业","境外","境外",,,,"I","境外",,
"21457e18f849a9424a258bae348bd9bc","常州聚和新材料股份有限公司","聚和股份",,0,"C39","计算机、通信和其他电子设备制造业","江苏","常州市",,,,"C","江苏-常州市",,
"0f502f45888b00881e0f9c201152218c","北京忆恒创源科技股份有限公司","忆恒创源",,0,"C39","计算机、通信和其他电子设备制造业","北京","海淀区",,,,"C","北京-海淀区",,
"460e0354b42e70850bd7c7eb45ef25fa","益方生物科技（上海）股份有限公司","益方生物",,0,"C27","医药制造业","上海","浦东新区",,,,"C","上海-浦东新区",,
"0b737c8804f4dd4f655abc8c34e9e317","海光信息技术股份有限公司","海光信息",,0,"C39","计算机、通信和其他电子设备制造业","天津","滨海新区",,,,"C","天津-滨海新区",,
"06abc7d4726100e2f720489e13cfa6e7","江苏菲沃泰纳米科技股份有限公司","菲沃泰",,0,"C39","计算机、通信和其他电子设备制造业","江苏","无锡市",,,,"C","江苏-无锡市",,
"e59c745010ef15a5e1080be6d78b7cb7","西安新通药物研究股份有限公司","新通药物",,0,"C27","医药制造业","陕西","西安市",,,,"C","陕西-西安市",,
"098ff36e02a4fc72a8e2d91bec7dc774","成都成发泰达航空科技股份有限公司","成发泰达",,0,"C37","铁路、船舶、航空航天和其他运输设备制造业","四川","成都市",,,,"C","四川-成都市",,
"bf71385804d2fbed98801316786107c8","影石创新科技股份有限公司","影石创新",,0,"C39","计算机、通信和其他电子设备制造业","广东","深圳市",,,,"C","广东-深圳市",,
"180fd61ff2f4f28ad047f4c3ded6e22e","杭州萤石网络股份有限公司","萤石网络",,0,"C39","计算机、通信和其他电子设备制造业","浙江","杭州市",,,,"C","浙江-杭州市",,
"67290cae92543c0209725d63465f848b","中微半导体（深圳）股份有限公司","中微半导",,0,"C39","计算机、通信和其他电子设备制造业","广东","深圳市",,,,"C","广东-深圳市",,
"0ebd82939b0d80ebe56f454e36239061","合肥晶合集成电路股份有限公司","晶合集成",,0,"C39","计算机、通信和其他电子设备制造业","安徽","合肥市",,,,"C","安徽-合肥市",,
"9ad3218b0b13b0597beb7d8d4774b44d","成都华微电子科技股份有限公司","成都华微",,0,"C39","计算机、通信和其他电子设备制造业","四川","成都市",,,,"C","四川-成都市",,
"48da246a000cf487f6a149d0b3faa1bd","江苏华盛锂电材料股份有限公司","华盛锂电",,0,"C26","化学原料和化学制品制造业","江苏","苏州市",,,,"C","江苏-苏州市",,
"6b1e1bc82af64c3258cbc4562f64cf87","深圳云天励飞技术股份有限公司","云天励飞",,0,"I65","软件和信息技术服务业","广东","深圳市",,,,"I","广东-深圳市",,
"3746ac1584301c5027696c86dbb9e4e5","凌云光技术股份有限公司","凌云光",,0,"C35","专用设备制造业","北京","海淀区",,,,"C","北京-海淀区",,
"d8d486d70efe6ee1666f90515c671e00","成都思科瑞微电子股份有限公司","思科瑞",,0,"M74","专业技术服务业","四川","成都市",,,,"M","四川-成都市",,
"6d81e6862a05c31c7f99f5cfe4fd5f5e","三未信安科技股份有限公司","三未信安",,0,"C39","计算机、通信和其他电子设备制造业","北京","朝阳区",,,,"C","北京-朝阳区",,
"7cd424228111c3d4d4b639544833e1d6","深圳市中科蓝讯科技股份有限公司","中科蓝讯",,0,"C39","计算机、通信和其他电子设备制造业","广东","深圳市",,,,"C","广东-深圳市",,
"f099b688d742ba1967ea9e1bc65a9821","奥比中光科技集团股份有限公司","奥比中光",,0,"C39","计算机、通信和其他电子设备制造业","广东","深圳市",,,,"C","广东-深圳市",,
"0ca671a05506505679dadadc1891f27f","江苏隆达超合金股份有限公司","隆达股份",,0,"C32","有色金属冶炼和压延加工业","江苏","无锡市",,,,"C","江苏-无锡市",,
"98b96fdd99c22670617733b2a2b2f3a8","北京英诺特生物技术股份有限公司","英诺特",,0,"C27","医药制造业","北京","丰台区",,,,"C","北京-丰台区",,
"bb919ab82ff3606791bbb5c7637bba64","南京国博电子股份有限公司","国博电子",,0,"C39","计算机、通信和其他电子设备制造业","江苏","南京市",,,,"C","江苏-南京市",,
"0490b632fb33d563fa8f5a28c65d1db6","浙江太美医疗科技股份有限公司","太美科技",,0,"I65","软件和信息技术服务业","浙江","嘉兴市",,,,"I","浙江-嘉兴市",,
"0d9f98f51a9085a2b83e8fe4c9631097","上海合合信息科技股份有限公司","合合信息",,0,"I65","软件和信息技术服务业","上海","静安区",,,,"I","上海-静安区",,
"7c09e3d796e35cef9b94fe5a2d6db66d","大连优迅科技股份有限公司","优迅科技",,0,"C39","计算机、通信和其他电子设备制造业","辽宁","大连市",,,,"C","辽宁-大连市",,
"f012d593dc8b47e4634c2c2671923b41","湖南麒麟信安科技股份有限公司","麒麟信安",,0,"I65","软件和信息技术服务业","湖南","长沙市",,,,"I","湖南-长沙市",,
"9993d67239df1b6e68a2e82b654430b4","中航（成都）无人机系统股份有限公司","无人机",,0,"C37","铁路、船舶、航空航天和其他运输设备制造业","四川","成都市",,,,"C","四川-成都市",,
"cb85bc6a67d0a04f231ac7b3a0740527","苏州华之杰电讯股份有限公司","华之杰",,0,"C34","通用设备制造业","江苏","苏州市",,,,"C","江苏-苏州市",,
"e524756612af44c7651d7fbfa7aa422d","昱能科技股份有限公司","昱能科技",,0,"C38","电气机械和器材制造业","浙江","嘉兴市",,,,"C","浙江-嘉兴市",,
"d440cc3413ee528b28192669c584dbdf","三一重能股份有限公司","三一重能",,0,"C38","电气机械和器材制造业","北京","昌平区",,,,"C","北京-昌平区",,
"c5735c1e03b836d102800d821100e6d9","中钢洛耐科技股份有限公司","中钢洛耐",,0,"C30","非金属矿物制品业","河南","洛阳市",,,,"C","河南-洛阳市",,
"1c11f0e2ffbef2aed89e47d437fcf16b","湖北超卓航空科技股份有限公司","超卓航科",,0,"C37","铁路、船舶、航空航天和其他运输设备制造业","湖北","襄阳市",,,,"C","湖北-襄阳市",,
"d972da041bfcdc6cad6dfce63f81bc1a","华海清科股份有限公司","华海清科",,0,"C35","专用设备制造业","天津","津南区",,,,"C","天津-津南区",,
"6834336fe903f06e16482cf3bfaae011","合肥井松智能科技股份有限公司","井松智能",,0,"C34","通用设备制造业","安徽","合肥市",,,,"C","安徽-合肥市",,
"34b4ba74084a9a64abb8685dc488d1cf","广州极飞科技股份有限公司","极飞科技",,0,"C39","计算机、通信和其他电子设备制造业","广东","广州市",,,,"C","广东-广州市",,
"0e2dd162fc4704d6e3ee5b388a2a2c24","亚洲硅业（青海）股份有限公司","亚洲硅业",,0,"C39","计算机、通信和其他电子设备制造业","青海","西宁市",,,,"C","青海-西宁市",,
"ad71a22162f4a5c8b3d064e83ea28026","华勤技术股份有限公司","华勤技术",,0,"C39","计算机、通信和其他电子设备制造业","上海","浦东新区",,,,"C","上海-浦东新区",,
"89d302dc98391faee49c3e4326de968b","天津美腾科技股份有限公司","美腾科技",,0,"C35","专用设备制造业","天津","滨海新区",,,,"C","天津-滨海新区",,
"f40f71cf1bd0e5e70f2f97ff83e5e857","龙芯中科技术股份有限公司","龙芯中科",,0,"C39","计算机、通信和其他电子设备制造业","北京","海淀区",,,,"C","北京-海淀区",,
"f2d8ef3c1ed14052db1b1a56eaa1c6ac","深圳市必易微电子股份有限公司","必易微",,0,"I65","软件和信息技术服务业","广东","深圳市",,,,"I","广东-深圳市",,
"4263808822ca48324f5d149874e5ae3a","广东百合医疗科技股份有限公司","百合医疗",,0,"C35","专用设备制造业","广东","佛山市",,,,"C","广东-佛山市",,
"e7ffb5df5da799eea2731ca4f85f9c38","用友汽车信息科技（上海）股份有限公司","用友汽车",,0,"I65","软件和信息技术服务业","上海","嘉定区",,,,"I","上海-嘉定区",,
"7ca2683c643081b2f72c1641c089c1a0","派格生物医药（苏州）股份有限公司","派格生物",,0,"C27","医药制造业","江苏","苏州市",,,,"C","江苏-苏州市",,
"e9cc50d13555232dea56150eb4d786a3","云从科技集团股份有限公司","云从科技",,0,"I65","软件和信息技术服务业","广东","广州市",,,,"I","广东-广州市",,
"8438538ae546c786fd0a2a3705b81f69","路德环境科技股份有限公司","路德环境",,0,"N77","生态保护和环境治理业","湖北","武汉市",,,,"N","湖北-武汉市",,
"7f1b5eefebdb7c4290e1eb4fda54a856","武汉科前生物股份有限公司","科前生物",,0,"C27","医药制造业","湖北","武汉市",,,,"C","湖北-武汉市",,
"c2d38bff864f9f55e30844797de6361e","浙江蓝特光学股份有限公司","蓝特光学",,0,"C39","计算机、通信和其他电子设备制造业","浙江","嘉兴市",,,,"C","浙江-嘉兴市",,
"d5d5b6d2c95bb646e3726267bb867c22","芯海科技（深圳）股份有限公司","芯海科技",,0,"C39","计算机、通信和其他电子设备制造业","广东","深圳市",,,,"C","广东-深圳市",,
"b4de48408b8f1054495efe65a025e057","赛赫智能设备（上海）股份有限公司","赛赫智能",,0,"C35","专用设备制造业","上海","宝山区",,,,"C","上海-宝山区",,
"c851b9850077cfd6437ce01d8f304fa8","上海奕瑞光电子科技股份有限公司","奕瑞科技",,0,"C35","专用设备制造业","上海","浦东新区",,,,"C","上海-浦东新区",,
"5d406e746c2d4794a33ef0c32142ddfa","思瑞浦微电子科技（苏州）股份有限公司","思瑞浦",,0,"I65","软件和信息技术服务业","江苏","苏州市",,,,"I","江苏-苏州市",,
"f3a3b632546f615c69fd30e8a3c77fda","福建福昕软件开发股份有限公司","福昕软件",,0,"I65","软件和信息技术服务业","福建","福州市",,,,"I","福建-福州市",,
"fc9a12163eb9eec43de9d2a457b754c8","合肥科威尔电源系统股份有限公司","科威尔",,0,"C35","专用设备制造业","安徽","合肥市",,,,"C","安徽-合肥市",,
"58ca065f29c76437febf449d1132a39c","慧捷（上海）科技股份有限公司","慧捷科技",,0,"I65","软件和信息技术服务业","上海","闵行区",,,,"I","上海-闵行区",,
"923212dab9374331b367af13826a557b","西安瑞联新材料股份有限公司","瑞联新材",,0,"C26","化学原料和化学制品制造业","陕西","西安市",,,,"C","陕西-西安市",,
"035123000c9cfb7c408f5dd11e981da4","吉林奥来德光电材料股份有限公司","奥来德",,0,"C35","专用设备制造业","吉林","长春市",,,,"C","吉林-长春市",,
"55dc56e9b82ab5d3d42cddeaddfb0651","浙江海德曼智能装备股份有限公司","海德曼",,0,"C34","通用设备制造业","浙江","台州市",,,,"C","浙江-台州市",,
"f51f11425a92f7f4b9a8146d70292594","江苏固德威电源科技股份有限公司","固德威",,0,"C38","电气机械和器材制造业","江苏","苏州市",,,,"C","江苏-苏州市",,
"8cbaa4690d104b65c6bdc346c073411b","北京莱伯泰科仪器股份有限公司","莱伯泰科",,0,"C40","仪器仪表制造业","北京","顺义区",,,,"C","北京-顺义区",,
"e81937bc5a1cf79f16ff2afb3b2e9915","深圳市海目星激光智能装备股份有限公司首次公开发行股票并在科创板上市","海目星",,0,"C35","专用设备制造业","广东","深圳市",,,,"C","广东-深圳市",,
"c2e6e15fd15de86cee80b070876e9111","苏州绿的谐波传动科技股份有限公司","绿的谐波",,0,"C34","通用设备制造业","江苏","苏州市",,,,"C","江苏-苏州市",,
"59979c1fc624547f06fa206bd0436053","圣湘生物科技股份有限公司","圣湘生物",,0,"C27","医药制造业","湖南","长沙市",,,,"C","湖南-长沙市",,
"24f9e2a93a5f5fb0244e9db74dcd8a96","成都苑东生物制药股份有限公司","苑东生物",,0,"C27","医药制造业","四川","成都市",,,,"C","四川-成都市",,
"5eae86ef63e8bccb07605cbd54c4f2e5","北京铁科首钢轨道技术股份有限公司","铁科轨道",,0,"C37","铁路、船舶、航空航天和其他运输设备制造业","北京","昌平区",,,,"C","北京-昌平区",,
"867b7097946f2f9299776f61199b04fc","北京键凯科技股份有限公司","键凯科技",,0,"C26","化学原料和化学制品制造业","北京","海淀区",,,,"C","北京-海淀区",,
"403bc51fc2ffdb48f3510052dfe01903","上海正帆科技股份有限公司","正帆科技",,0,"C34","通用设备制造业","上海","闵行区",,,,"C","上海-闵行区",,
"ea1bda720897c36bd6171779962a0c6a","江苏中信博新能源科技股份有限公司","中信博",,0,"C38","电气机械和器材制造业","江苏","苏州市",,,,"C","江苏-苏州市",,
"0fff14f90baa2c3d1b4e48cf74fdc871","浙江瑞晟智能科技股份有限公司","瑞晟智能",,0,"C35","专用设备制造业","浙江","宁波市",,,,"C","浙江-宁波市",,
"6a0427399360288198d4e6fb5087345c","杭州华光焊接新材料股份有限公司","华光新材",,0,"C33","金属制品业","浙江","杭州市",,,,"C","浙江-杭州市",,
"f2403d560e06483a41162cceee68480f","芯原微电子（上海）股份有限公司","芯原股份",,0,"I65","软件和信息技术服务业","上海","浦东新区",,,,"I","上海-浦东新区",,
"5d655a59c9deb9ef23c1c7b18f6b5643","郑州信大捷安信息技术股份有限公司首次公开发行股票并在科创板上市","信大捷安",,0,"I65","软件和信息技术服务业","河南","郑州市",,,,"I","河南-郑州市",,
"fad46ce2cb316bbee066b907dffc5438","广州安必平医药科技股份有限公司","安必平",,0,"C27","医药制造业","广东","广州市",,,,"C","广东-广州市",,
"1fec0dfd30e1fea5664f3091b55136df","上海复洁环保科技股份有限公司","复洁环保",,0,"C35","专用设备制造业","上海","杨浦区",,,,"C","上海-杨浦区",,
"2c4d93e0b588c4b9958b8d0f89574114","昆山龙腾光电股份有限公司","龙腾光电",,0,"C39","计算机、通信和其他电子设备制造业","江苏","苏州市",,,,"C","江苏-苏州市",,
"ae5d4203acb06f33ef1bd6fb4616d135","北京博睿宏远数据科技股份有限公司","博睿数据",,0,"I65","软件和信息技术服务业","北京","东城区",,,,"I","北京-东城区",,
"12cc96b0212c930e71e7ad21380ffc0d","苏州敏芯微电子技术股份有限公司","敏芯股份",,0,"C39","计算机、通信和其他电子设备制造业","江苏","苏州市",,,,"C","江苏-苏州市",,
"a17d14ef9e76a726a3f82e419fe1688e","北京亿华通科技股份有限公司","亿华通",,0,"C38","电气机械和器材制造业","北京","海淀区",,,,"C","北京-海淀区",,
"879c91d71ebfb1d9bdcd16449ca5ff89","上海先惠自动化技术股份有限公司","先惠技术",,0,"C35","专用设备制造业","上海","松江区",,,,"C","上海-松江区",,
"014bf436d94777a86020883ca7256808","上海凯赛生物技术股份有限公司","凯赛生物",,0,"C28","化学纤维制造业","上海","浦东新区",,,,"C","上海-浦东新区",,
"1bda201766a0d46fb04d0028deb470fb","北京中数智汇科技股份有限公司","中数智汇",,0,"I65","软件和信息技术服务业","北京","海淀区",,,,"I","北京-海淀区",,
"b814f7e4eba36ef1e786c8bcdc854327","思特威（上海）电子科技股份有限公司","思特威",,0,"C39","计算机、通信和其他电子设备制造业","上海","浦东新区",,,,"C","上海-浦东新区",,
"9ff7345c9c06a10c02bb2b287345da35","广东纳睿雷达科技股份有限公司","纳睿雷达",,0,"C39","计算机、通信和其他电子设备制造业","广东","珠海市",,,,"C","广东-珠海市",,
"5fbc7e13f35f3d8a7729914ed2774966","先正达集团股份有限公司","先正达",,0,"C27","医药制造业","上海","浦东新区",,,,"C","上海-浦东新区",,
"1720f8dbee5ade9b3f9aa3089fad6abf","北京盛诺基医药科技股份有限公司","盛诺基",,0,"C27","医药制造业","北京","海淀区",,,,"C","北京-海淀区",,
"25cd7993710ef01b09972dc1134cb096","上海芯龙半导体技术股份有限公司","芯龙技术",,0,"I65","软件和信息技术服务业","上海","浦东新区",,,,"I","上海-浦东新区",,
"999965286e49dd263629e80be1442010","杭州景业智能科技股份有限公司","景业智能",,0,"C35","专用设备制造业","浙江","杭州市",,,,"C","浙江-杭州市",,
"35e5d4a7561980fa1550507f1fe32fcc","上海奉天电子股份有限公司","奉天电子",,0,"C39","计算机、通信和其他电子设备制造业","上海","嘉定区",,,,"C","上海-嘉定区",,
"f3e4e437e75250a7b980a2e02a01963c","江苏集萃药康生物科技股份有限公司","集萃药康",,0,"M73","研究和试验发展","江苏","南京市",,,,"M","江苏-南京市",,
"618e60abd4601027ebfb9f7169bf5118","浙江禾川科技股份有限公司","禾川科技",,0,"C40","仪器仪表制造业","浙江","衢州市",,,,"C","浙江-衢州市",,
"93555f9494f3809d824464586d891988","拓荆科技股份有限公司","拓荆科技",,0,"C35","专用设备制造业","辽宁","沈阳市",,,,"C","辽宁-沈阳市",,
"242413c2d27116ad1be1e8c306c2dd7d","广东安达智能装备股份有限公司首次公开发行股票并在科创板上市项目","安达智能",,0,"C35","专用设备制造业","广东","东莞市",,,,"C","广东-东莞市",,
"a4fa12e3ffde00d5412ae13569a19686","国网智能科技股份有限公司","国网智能",,0,"C35","专用设备制造业","山东","济南市",,,,"C","山东-济南市",,
"7b319133f5bd4ad99e9a391fc882a8fd","苏州德龙激光股份有限公司","德龙激光",,0,"C35","专用设备制造业","江苏","苏州市",,,,"C","江苏-苏州市",,
"12be762d580b23100b822dd27a7eae47","广东赛微微电子股份有限公司","赛微微",,0,"I65","软件和信息技术服务业","广东","东莞市",,,,"I","广东-东莞市",,
"6588690c8463a480ab6688740d432a5f","峰岹科技（深圳）股份有限公司","峰岹科技",,0,"I65","软件和信息技术服务业","广东","深圳市",,,,"I","广东-深圳市",,
"2d446e20ad965e4858ad3c97868bacd7","北京谷数科技股份有限公司","谷数科技",,0,"I65","软件和信息技术服务业","北京","海淀区",,,,"I","北京-海淀区",,
"a9fe6970f6e60064762a89ac84c31ec4","北京经纬恒润科技股份有限公司","经纬恒润",,0,"C39","计算机、通信和其他电子设备制造业","北京","朝阳区",,,,"C","北京-朝阳区",,
"5722e12558e5ee89145c1c8e494d0c7d","深圳英集芯科技股份有限公司","英集芯",,0,"C39","计算机、通信和其他电子设备制造业","广东","深圳市",,,,"C","广东-深圳市",,
"b16174cad1507188a9bf9c48910238a1","上海仁度生物科技股份有限公司","仁度生物",,0,"C27","医药制造业","上海","浦东新区",,,,"C","上海-浦东新区",,
"a79ba316e5b7495d634ccc4e856bfd80","苏州纳芯微电子股份有限公司","纳芯微",,0,"I65","软件和信息技术服务业","江苏","苏州市",,,,"I","江苏-苏州市",,
"fbd3c6309473335363095b5d44b5aed6","苏州长光华芯光电技术股份有限公司","长光华芯",,0,"C39","计算机、通信和其他电子设备制造业","江苏","苏州市",,,,"C","江苏-苏州市",,
"04195e198ca1abaf13562b4b945ec1e9","唯捷创芯（天津）电子技术股份有限公司","唯捷创芯",,0,"I65","软件和信息技术服务业","天津","滨海新区",,,,"I","天津-滨海新区",,
"6b7f9a47e0a27170c3486195ea9bf186","普源精电科技股份有限公司","普源精电",,0,"C40","仪器仪表制造业","江苏","苏州市",,,,"C","江苏-苏州市",,
"2cfb2b6956d1dc240968ffe2821b22e0","中复神鹰碳纤维股份有限公司","中复神鹰",,0,"C28","化学纤维制造业","江苏","连云港市",,,,"C","江苏-连云港市",,
"039816c916bdc5c5276a3263c54c9b11","上海商米科技集团股份有限公司","商米科技",,0,"C39","计算机、通信和其他电子设备制造业","上海","杨浦区",,,,"C","上海-杨浦区",,
"cdd776e3003bc782e93b56d7db6e9c9d","首药控股（北京）股份有限公司","首药控股",,0,"C27","医药制造业","北京","大兴区",,,,"C","北京-大兴区",,
"edeb1075f6a13b8c9cd57a8f7edcb7b4","北京九州一轨环境科技股份有限公司","九州一轨",,0,"N77","生态保护和环境治理业","北京","房山区",,,,"N","北京-房山区",,
"85034aefcb80ffa0f608f4917d3f6769","荣昌生物制药（烟台）股份有限公司","荣昌生物",,0,"C27","医药制造业","山东","烟台市",,,,"C","山东-烟台市",,
"149c29aa0f72d57e005ebab47d68ab18","海创药业股份有限公司","海创药业",,0,"C27","医药制造业","四川","成都市",,,,"C","四川-成都市",,
"a1091e1171927662b7bb2d2f01ec9e63","广州思林杰科技股份有限公司","思林杰",,0,"C40","仪器仪表制造业","广东","广州市",,,,"C","广东-广州市",,
"87e26895ce5157b47b41cd48cd072059","陕西莱特光电材料股份有限公司","莱特光电",,0,"C39","计算机、通信和其他电子设备制造业","陕西","西安市",,,,"C","陕西-西安市",,
"18fbfad7666aba1671c7b3e036e11343","北京理工导航控制科技股份有限公司","理工导航",,0,"C39","计算机、通信和其他电子设备制造业","北京","昌平区",,,,"C","北京-昌平区",,
"d6ae23f77e2908f0c5ffd19b8ad89d40","陕西斯瑞新材料股份有限公司","斯瑞新材",,0,"C32","有色金属冶炼和压延加工业","陕西","西安市",,,,"C","陕西-西安市",,
"643cf6741f2f1cca44dc56366e85ed56","北京屹唐半导体科技股份有限公司","屹唐股份",,0,"C35","专用设备制造业","北京","大兴区",,,,"C","北京-大兴区",,
"1e62bae4462bd8e0ec0c032eb5f4e929","珠海高凌信息科技股份有限公司","高凌信息",,0,"C39","计算机、通信和其他电子设备制造业","广东","珠海市",,,,"C","广东-珠海市",,
"5b1fc9f80efa834ddfc02521bb044372","上海赛伦生物技术股份有限公司","赛伦生物",,0,"C27","医药制造业","上海","青浦区",,,,"C","上海-青浦区",,
"84a4fd1efae4d635f33532eae6bc5fe8","北京格灵深瞳信息技术股份有限公司","格灵深瞳",,0,"I65","软件和信息技术服务业","北京","朝阳区",,,,"I","北京-朝阳区",,
"0a58b459a091db36ffa7885a38bd4285","陕西华秦科技实业股份有限公司","华秦科技",,0,"C41","其他制造业","陕西","西安市",,,,"C","陕西-西安市",,
"fd925aa5ee74d02307d3cb7190ab3836","和元生物技术（上海）股份有限公司","和元生物",,0,"M73","研究和试验发展","上海","浦东新区",,,,"M","上海-浦东新区",,
"fd26cfb1e45a3e1ecdba50fbc421fd41","征图新视（江苏）科技股份有限公司","征图新视",,0,"C40","仪器仪表制造业","江苏","常州市",,,,"C","江苏-常州市",,
"270bd96d1a8c83ff64375ef4cdff3294","辉芒微电子（深圳）股份有限公司","辉芒微",,0,"C39","计算机、通信和其他电子设备制造业","广东","深圳市",,,,"C","广东-深圳市",,
"8de4f8b8a77fa3977a0c071068f4e417","宁波均普智能制造股份有限公司","均普智能",,0,"C35","专用设备制造业","浙江","宁波市",,,,"C","浙江-宁波市",,
"a7f539366ef4af2e071d3be65d443637","长威信息科技发展股份有限公司","长威科技",,0,"I65","软件和信息技术服务业","福建","福州市",,,,"I","福建-福州市",,
"201ba5632eb90d0d5a85440007dd9712","深圳市联软科技股份有限公司","联软科技",,0,"I65","软件和信息技术服务业","广东","深圳市",,,,"I","广东-深圳市",,
"65df989a4040285f532d4667b6089f7d","深圳市紫光照明技术股份有限公司","紫光照明",,0,"C38","电气机械和器材制造业","广东","深圳市",,,,"C","广东-深圳市",,
"2c82d9d653773990d622cd2b1f748e71","亚信安全科技股份有限公司","亚信安全",,0,"I65","软件和信息技术服务业","江苏","南京市",,,,"I","江苏-南京市",,
"7100db5b22cf2a15527c9fc887e66a30","江苏金智教育信息股份有限公司","金智教育",,0,"I65","软件和信息技术服务业","江苏","南京市",,,,"I","江苏-南京市",,
"8786f9909cad184d87b26f5507d91141","中触媒新材料股份有限公司","中触媒",,0,"C26","化学原料和化学制品制造业","辽宁","大连市",,,,"C","辽宁-大连市",,
"d22e498855221ec9f6482cb76735be5e","成都坤恒顺维科技股份有限公司","坤恒顺维",,0,"C40","仪器仪表制造业","四川","成都市",,,,"C","四川-成都市",,
"641a57d5dc4386da698a5330b66c90af","阿特斯阳光电力集团股份有限公司","阿特斯",,0,"C38","电气机械和器材制造业","江苏","苏州市",,,,"C","江苏-苏州市",,
"27b76d9803261a13498fe7a2009195e5","晶科能源股份有限公司","晶科能源",,0,"C38","电气机械和器材制造业","江西","上饶市",,,,"C","江西-上饶市",,
"cac3b7da6889903b617e2eb3cc0eb73c","广东中图半导体科技股份有限公司","中图科技",,0,"C39","计算机、通信和其他电子设备制造业","广东","东莞市",,,,"C","广东-东莞市",,
"6ba85b0970aa375e4380ab851a298308","广东纬德信息科技股份有限公司","纬德信息",,0,"I65","软件和信息技术服务业","广东","广州市",,,,"I","广东-广州市",,
"14d1604ab10c562cfceb7ef382067c65","大汉软件股份有限公司","大汉软件",,0,"I65","软件和信息技术服务业","江苏","南京市",,,,"I","江苏-南京市",,
"315ef01f6022a344a615cfa36e727cac","广州创尔生物技术股份有限公司","创尔生物",,0,"C27","医药制造业","广东","广州市",,,,"C","广东-广州市",,
"66f9430049042d09a543c598632f744f","龙腾半导体股份有限公司","龙腾股份",,0,"C39","计算机、通信和其他电子设备制造业","陕西","西安市",,,,"C","陕西-西安市",,
"e18ed2611c1448390c17b38a892f8cd8","西安大医集团股份有限公司","大医集团",,0,"C35","专用设备制造业","陕西","西安市",,,,"C","陕西-西安市",,
"56cc1efc3283ec26cadc3d6aca80f62b","苏州东微半导体股份有限公司","东微半导",,0,"C39","计算机、通信和其他电子设备制造业","江苏","苏州市",,,,"C","江苏-苏州市",,
"e56e46233e5607746e9794439ce909f6","浙江臻镭科技股份有限公司","臻镭科技",,0,"C39","计算机、通信和其他电子设备制造业","浙江","杭州市",,,,"C","浙江-杭州市",,
"19e8a0a995425bb6b01154613fd27f80","迈威（上海）生物科技股份有限公司","迈威生物",,0,"C27","医药制造业","上海","浦东新区",,,,"C","上海-浦东新区",,
"2b98be6fb65cbded3d01791a1eb9fde3","浙江和泽医药科技股份有限公司","和泽医药",,0,"M73","研究和试验发展","浙江","杭州市",,,,"M","浙江-杭州市",,
"6814af8855d92a695cf93b7064fc1f1e","山东天岳先进科技股份有限公司","天岳先进",,0,"C39","计算机、通信和其他电子设备制造业","山东","济南市",,,,"C","山东-济南市",,
"f7147a3b476dc9235f3e778e404378bd","广东希荻微电子股份有限公司","希荻微",,0,"I65","软件和信息技术服务业","广东","佛山市",,,,"I","广东-佛山市",,
"8b6e1afac979ede08c3f315bdd6fb7d3","翱捷科技股份有限公司","翱捷科技",,0,"C39","计算机、通信和其他电子设备制造业","上海","浦东新区",,,,"C","上海-浦东新区",,
"3b0f1f7884d1b715b95a7999b9b2a868","百济神州有限公司科创板IPO项目","百济神州",,0,"C27","医药制造业","境外","境外",,,,"C","境外",,
"51c2c2a64fef88e7fbc8e3f46bc6332e","江苏高凯精密流体技术股份有限公司","高凯技术",,0,"C35","专用设备制造业","江苏","常州市",,,,"C","江苏-常州市",,
"f4f80e6fb27e24f6d0c415e72a02550f","江苏容汇通用锂业股份有限公司","容汇锂业",,0,"C39","计算机、通信和其他电子设备制造业","江苏","南通市",,,,"C","江苏-南通市",,
"a6e15af9ba8a6f34017a3310dc0e1e17","苏州国芯科技股份有限公司","国芯科技",,0,"I65","软件和信息技术服务业","江苏","苏州市",,,,"I","江苏-苏州市",,
"727e8e7e6d87356480f305ccd76ea121","广州市品高软件股份有限公司","品高软件",,0,"I65","软件和信息技术服务业","广东","广州市",,,,"I","广东-广州市",,
"3090bcb4d04e532030546cffc19bd8e6","无锡盛景微电子股份有限公司","盛景微",,0,"C39","计算机、通信和其他电子设备制造业","江苏","无锡市",,,,"C","江苏-无锡市",,
"ee2289da24fd3c301afd0a8d53fa0d5d","江苏亚虹医药科技股份有限公司","亚虹医药",,0,"C27","医药制造业","江苏","泰州市",,,,"C","江苏-泰州市",,
"b4c80b9a746aa1cf9fdbaa588e296a93","广东雅达电子股份有限公司","雅达电子",,0,"C40","仪器仪表制造业","广东","河源市",,,,"C","广东-河源市",,
"e3f9d9e512a866ded400522c817ecb63","上海南方模式生物科技股份有限公司","南模生物",,0,"M73","研究和试验发展","上海","浦东新区",,,,"M","上海-浦东新区",,
"ec4c61d078b7f1a8a9988a3fd30d15a8","南方电网电力科技股份有限公司","南网科技",,0,"M74","专业技术服务业","广东","广州市",,,,"M","广东-广州市",,
"e006686a330dd2d7db038598dd18e26c","北京市春立正达医疗器械股份有限公司","春立医疗",,0,"C35","专用设备制造业","北京","通州区",,,,"C","北京-通州区",,
"4d16725efde55c12175de4aba9c5c63e","上海概伦电子股份有限公司","概伦电子",,0,"I65","软件和信息技术服务业","上海","浦东新区",,,,"I","上海-浦东新区",,
"1dbc2365c080cb3d55d386924ea39164","西安炬光科技股份有限公司","炬光科技",,0,"C39","计算机、通信和其他电子设备制造业","陕西","西安市",,,,"C","陕西-西安市",,
"5327f1bafbcf4af7b199ea726a1aa344","广东德冠薄膜新材料股份有限公司","德冠新材",,0,"C29","橡胶和塑料制品业","广东","佛山市",,,,"C","广东-佛山市",,
"74c975dae10e6c27df8d0da9e78aa5f2","杭州索元生物医药股份有限公司","索元生物",,0,"C27","医药制造业","浙江","杭州市",,,,"C","浙江-杭州市",,
"88e05f3d89ccbb88cac0f67a135017ff","宁波菲仕技术股份有限公司","菲仕技术",,0,"C38","电气机械和器材制造业","浙江","宁波市",,,,"C","浙江-宁波市",,
"971b2a9bd4469913413c70244604ce1a","南京森根科技股份有限公司","森根科技",,0,"I65","软件和信息技术服务业","江苏","南京市",,,,"I","江苏-南京市",,
"3c285445c3cd658fadb20ac7eb4ec6fe","深圳市泛海统联精密制造股份有限公司","泛海统联",,0,"C39","计算机、通信和其他电子设备制造业","广东","深圳市",,,,"C","广东-深圳市",,
"d3eba7d4da7b67f97fced0301c39b56e","嘉和美康（北京）科技股份有限公司","嘉和美康",,0,"I65","软件和信息技术服务业","北京","海淀区",,,,"I","北京-海淀区",,
"5a6b9ea1134e2ae1b0dda472af3dec49","创耀（苏州）通信科技股份有限公司","创耀科技",,0,"I65","软件和信息技术服务业","江苏","苏州市",,,,"I","江苏-苏州市",,
"7bcea7f75b16e60fdeefac40a17dc118","杭州禾迈电力电子股份有限公司","禾迈股份",,0,"C38","电气机械和器材制造业","浙江","杭州市",,,,"C","浙江-杭州市",,
"e70eda6cac12ed6cd933fa9aa314c6c4","山东益丰生化环保股份有限公司","益丰股份",,0,"C26","化学原料和化学制品制造业","山东","滨州市",,,,"C","山东-滨州市",,
"cd8739b4a99712932453fe6b94278d00","东芯半导体股份有限公司","东芯股份",,0,"C39","计算机、通信和其他电子设备制造业","上海","青浦区",,,,"C","上海-青浦区",,
"8a6a0a9e2563a6cf983d32eaad1c0f0e","迪哲（江苏）医药股份有限公司","迪哲医药",,0,"C27","医药制造业","江苏","无锡市",,,,"C","江苏-无锡市",,
"d708bd1ab4cc18e053224169c868a90c","上海芯导电子科技股份有限公司","芯导科技",,0,"C39","计算机、通信和其他电子设备制造业","上海","浦东新区",,,,"C","上海-浦东新区",,
"2777f884193588ba8793a0c1eb7eaf8b","湖北华强科技股份有限公司","华强科技",,0,"C35","专用设备制造业","湖北","宜昌市",,,,"C","湖北-宜昌市",,
"cb849c5edfc19226ea170fa7c985e5f2","青岛云路先进材料技术股份有限公司","青岛云路",,0,"C33","金属制品业","山东","青岛市",,,,"C","山东-青岛市",,
"7c1e3f1131ae8bda4dcc9cd1be85b5c4","深圳市鼎阳科技股份有限公司","鼎阳科技",,0,"C40","仪器仪表制造业","广东","深圳市",,,,"C","广东-深圳市",,
"5a13d032c0255c082fd51614595a0b3b","盛美半导体设备（上海）股份有限公司","盛美股份",,0,"C35","专用设备制造业","上海","浦东新区",,,,"C","上海-浦东新区",,
"c1cf72e19c86dfc4c0f34a31d3fbc027","炬芯科技股份有限公司","炬芯科技",,0,"C39","计算机、通信和其他电子设备制造业","广东","珠海市",,,,"C","广东-珠海市",,
"6cd42b97a0bba352f26b00ed323431bd","杭州安旭生物科技股份有限公司","安旭生物",,0,"C27","医药制造业","浙江","杭州市",,,,"C","浙江-杭州市",,
"1d7d6eb0e07fff906a6cdfd4f624455e","安徽巨一科技股份有限公司","巨一科技",,0,"C35","专用设备制造业","安徽","合肥市",,,,"C","安徽-合肥市",,
"cc84f82bc96d0af507efa64a75693cf5","常州铭赛机器人科技股份有限公司","铭赛科技",,0,"C35","专用设备制造业","江苏","常州市",,,,"C","江苏-常州市",,
"9ec5732c20c1e9dcb678a141b4615fb4","国泰新点软件股份有限公司","新点软件",,0,"I65","软件和信息技术服务业","江苏","苏州市",,,,"I","江苏-苏州市",,
"0585856c0011c24eaae9a2ef48e78387","南京诺唯赞生物科技股份有限公司","诺唯赞",,0,"C27","医药制造业","江苏","南京市",,,,"C","江苏-南京市",,
"9c355eb8d473ecb838406a8ee99037ae","江苏灿勤科技股份有限公司","灿勤科技",,0,"C39","计算机、通信和其他电子设备制造业","江苏","苏州市",,,,"C","江苏-苏州市",,
"ca762f32d5662ba70dd54ec94c9effd7","上海仁会生物制药股份有限公司","仁会生物",,0,"C27","医药制造业","上海","浦东新区",,,,"C","上海-浦东新区",,
"e598a05d06193e0910fdd32a1ef6a3b7","上海安路信息科技股份有限公司","安路科技",,0,"C39","计算机、通信和其他电子设备制造业","上海","虹口区",,,,"C","上海-虹口区",,
"2d30aba1086747bab25f7689745deef1","上海澳华内镜股份有限公司","澳华内镜",,0,"C35","专用设备制造业","上海","闵行区",,,,"C","上海-闵行区",,
"fef2073c586443b07712be982fc444f6","联想集团有限公司","联想集团",,0,"C39","计算机、通信和其他电子设备制造业","中国香港","中国香港",,,,"C","中国香港-中国香港",,
"3a0954ea350fc0946c4f8f53ea47bd70","苏州晶云药物科技股份有限公司","晶云药物",,0,"M73","研究和试验发展","江苏","苏州市",,,,"M","江苏-苏州市",,
"4dc3bb484527d80759da5e4722e85854","上海翼捷工业安全设备股份有限公司","翼捷股份",,0,"C40","仪器仪表制造业","上海","浦东新区",,,,"C","上海-浦东新区",,
"6534ad3cf35afb1f8ad021911e815403","上海吉凯基因医学科技股份有限公司","吉凯基因",,0,"M73","研究和试验发展","上海","徐汇区",,,,"M","上海-徐汇区",,
"c3ff1e6f661c6d1a9e5c527a5d794399","上海海和药物研究开发股份有限公司","海和药物",,0,"C27","医药制造业","上海","浦东新区",,,,"C","上海-浦东新区",,
"b8426b245c8af55f092c69f9c8794ebe","美埃（中国）环境科技股份有限公司","美埃科技",,0,"C35","专用设备制造业","江苏","南京市",,,,"C","江苏-南京市",,
"5c26d212ec158372b1f32406610b9f90","辽宁成大生物股份有限公司","成大生物",,0,"C27","医药制造业","辽宁","沈阳市",,,,"C","辽宁-沈阳市",,
"9ab3f793b63b94d9a95c9833ab08b40f","杭州安杰思医学科技股份有限公司","安杰思",,0,"C35","专用设备制造业","浙江","杭州市",,,,"C","浙江-杭州市",,
"04ba17566786a21455d59f049dd79804","杭州凯尔达焊接机器人股份有限公司","凯尔达",,0,"C34","通用设备制造业","浙江","杭州市",,,,"C","浙江-杭州市",,
"4133513c59a157fa926a5874f4ee8146","珠海冠宇电池股份有限公司","珠海冠宇",,0,"C38","电气机械和器材制造业","广东","珠海市",,,,"C","广东-珠海市",,
"2d9abb4431dc77bb0d607679fb69c42c","浙江天地环保科技股份有限公司","天地环保",,0,"N77","生态保护和环境治理业","浙江","杭州市",,,,"N","浙江-杭州市",,
"29cc3e26b992b1285c15e4221c4bc8f6","精进电动科技股份有限公司","精进电动",,0,"C36","汽车制造业","北京","朝阳区",,,,"C","北京-朝阳区",,
"047cb69b75748d93ea0403039c998503","北京同益中新材料科技股份有限公司","同益中",,0,"C28","化学纤维制造业","北京","大兴区",,,,"C","北京-大兴区",,
"6b2117932c6a7fc708f1dd25e8b81f26","北京富吉瑞光电科技股份有限公司","富吉瑞",,0,"C39","计算机、通信和其他电子设备制造业","北京","顺义区",,,,"C","北京-顺义区",,
"56d381c1c07d7f44b2d4ad1d007849f4","中天科技海缆股份有限公司","中天海缆",,0,"C38","电气机械和器材制造业","江苏","南通市",,,,"C","江苏-南通市",,
"73e8682d2e3693003dc3ed6e0b8d4e9a","中科微至智能制造科技江苏股份有限公司","中科微至",,0,"C34","通用设备制造业","江苏","无锡市",,,,"C","江苏-无锡市",,
"13fe814d3cc5d89ae3c73c016308ad66","杭州国泰环保科技股份有限公司","国泰环保",,0,"N77","生态保护和环境治理业","浙江","杭州市",,,,"N","浙江-杭州市",,
"113d2b147af844a5b36bb065dd4a132b","中自环保科技股份有限公司","中自环保",,0,"C26","化学原料和化学制品制造业","四川","成都市",,,,"C","四川-成都市",,
"20102c23450aa94c14795ae171555436","苏州新锐合金工具股份有限公司","新锐股份",,0,"C32","有色金属冶炼和压延加工业","江苏","苏州市",,,,"C","江苏-苏州市",,
"90204e9f548db592eb557a0e7935d5e0","上海重塑能源集团股份有限公司","重塑股份",,0,"C38","电气机械和器材制造业","上海","嘉定区",,,,"C","上海-嘉定区",,
"8733958c25a3840142874f7697796b6d","浙江卓锦环保科技股份有限公司","卓锦环保",,0,"N77","生态保护和环境治理业","浙江","杭州市",,,,"N","浙江-杭州市",,
"a850aa97d8f2e9f665a0b444814969b0","昆山国力电子科技股份有限公司","国力科技",,0,"C39","计算机、通信和其他电子设备制造业","江苏","苏州市",,,,"C","江苏-苏州市",,
"094f7e78aaeaa43ee513ae4396f5ad89","纽威数控装备（苏州）股份有限公司","纽威数控",,0,"C34","通用设备制造业","江苏","苏州市",,,,"C","江苏-苏州市",,
"b4a3b215039492af855db13f59083bbf","杭州博拓生物科技股份有限公司","博拓生物",,0,"C27","医药制造业","浙江","杭州市",,,,"C","浙江-杭州市",,
"3c2181bdb90f98fe851aa17ed83842a8","浙江博蓝特半导体科技股份有限公司首次公开发行股票并在科创板上市项目","博蓝特",,0,"C39","计算机、通信和其他电子设备制造业","浙江","金华市",,,,"C","浙江-金华市",,
"2442d14508eb35c77ef2ac786b50879e","上海艾为电子技术股份有限公司","艾为电子",,0,"C39","计算机、通信和其他电子设备制造业","上海","闵行区",,,,"C","上海-闵行区",,
"33913278dfae2a84d616f222e8c5e66c","四川汇宇制药股份有限公司","汇宇制药",,0,"C27","医药制造业","四川","内江市",,,,"C","四川-内江市",,
"768923192c31f88f054c113e8e8343a5","株洲中车时代电气股份有限公司首次公开发行A股股票并在科创板上市","中车电气",,0,"C37","铁路、船舶、航空航天和其他运输设备制造业","湖南","株洲市",,,,"C","湖南-株洲市",,
"99dd4e94b022938411bbb03838f538aa","上海谊众药业股份有限公司","上海谊众",,0,"C27","医药制造业","上海","奉贤区",,,,"C","上海-奉贤区",,
"631f5046bdfbf8b9db224c4ebfdfa0f6","浙江科惠医疗器械股份有限公司","科惠医疗",,0,"C35","专用设备制造业","浙江","金华市",,,,"C","浙江-金华市",,
"e21efb0a34d180407ad546a2266caa81","江苏宏微科技股份有限公司","宏微科技",,0,"C39","计算机、通信和其他电子设备制造业","江苏","常州市",,,,"C","江苏-常州市",,
"2c08c45c0799ce4a96029ad6f6334fd0","长春百克生物科技股份公司_IPO","百克生物",,0,"C27","医药制造业","吉林","长春市",,,,"C","吉林-长春市",,
"af2cfb123e29f3183e1c7e3fb2437ff3","广州熵能创新材料股份有限公司","熵能新材",,0,"C26","化学原料和化学制品制造业","广东","广州市",,,,"C","广东-广州市",,
"02a88a5df7fd88c06be297bf081b14bf","成都国光电气股份有限公司","国光电气",,0,"C39","计算机、通信和其他电子设备制造业","四川","成都市",,,,"C","四川-成都市",,
"66f2a4161e4531ceac35dc80a2fd7a88","佛山市蓝箭电子股份有限公司","蓝箭电子",,0,"C39","计算机、通信和其他电子设备制造业","广东","佛山市",,,,"C","广东-佛山市",,
"d5f484fa54e2430a05b5beebe5d299a9","固安信通信号技术股份有限公司","固安信通",,0,"C37","铁路、船舶、航空航天和其他运输设备制造业","河北","廊坊市",,,,"C","河北-廊坊市",,
"d59f34408835c5ada41f39dba31c5a35","上海卓然工程技术股份有限公司","卓然股份",,0,"C35","专用设备制造业","上海","长宁区",,,,"C","上海-长宁区",,
"54f8389bd1459afa60959b9b5815a237","贵州振华新材料股份有限公司","振华新材",,0,"C39","计算机、通信和其他电子设备制造业","贵州","贵阳市",,,,"C","贵州-贵阳市",,
"09bd9e9f4107739284842ec1596affd8","浙江衣拿智能科技股份有限公司","衣拿智能",,0,"C34","通用设备制造业","浙江","台州市",,,,"C","浙江-台州市",,
"50d6185b4c83482b221c387d74c83edd","浙江晨泰科技股份有限公司","晨泰科技",,0,"C40","仪器仪表制造业","浙江","温州市",,,,"C","浙江-温州市",,
"b3c4b66e0431a1ff3ca771567d46f58e","格科微有限公司","格科微",,0,"C39","计算机、通信和其他电子设备制造业","境外","境外",,,,"C","境外",,
"ead5638469bf4c8ef48b0f8dd65df9cb","赛赫智能设备（上海）股份有限公司","赛赫智能",,0,"C35","专用设备制造业","上海","宝山区",,,,"C","上海-宝山区",,
"8e45a6b80d964f3c9ba4ed80bcd9af84","浙江国祥股份有限公司","浙江国祥",,0,"C35","专用设备制造业","浙江","绍兴市",,,,"C","浙江-绍兴市",,
"9bc8edea5a4214b01e8fc5e1b3736965","南京茂莱光学科技股份有限公司科创板IPO","茂莱光学",,0,"C40","仪器仪表制造业","江苏","南京市",,,,"C","江苏-南京市",,
"202d19fa48a58b701369fbefe208db54","湖南长远锂科股份有限公司","长远锂科",,0,"C39","计算机、通信和其他电子设备制造业","湖南","长沙市",,,,"C","湖南-长沙市",,
"d4cf034a178e75184e59da5ee0649539","安徽壹石通材料科技股份有限公司首次公开发行股票并在科创板上市","壹石通",,0,"C30","非金属矿物制品业","安徽","蚌埠市",,,,"C","安徽-蚌埠市",,
"1f26f311e1f674b74cdea5fa5eb970ff","江西悦安新材料股份有限公司","悦安新材",,0,"C33","金属制品业","江西","赣州市",,,,"C","江西-赣州市",,
"ddd60a553c0c3bafd6db3ab6edfe01d4","北京海天瑞声科技股份有限公司","海天瑞声",,0,"I65","软件和信息技术服务业","北京","海淀区",,,,"I","北京-海淀区",,
"2c87c610f86eb81520e9f7faa13fb3f5","普冉半导体（上海）股份有限公司","普冉股份",,0,"C39","计算机、通信和其他电子设备制造业","上海","浦东新区",,,,"C","上海-浦东新区",,
"3ad5894a0c563c84cc75364d032ec90a","远峰科技股份有限公司","远峰科技",,0,"C39","计算机、通信和其他电子设备制造业","广东","东莞市",,,,"C","广东-东莞市",,
"3f2d6d77bfe832e8974c72a103177cce","上海复旦微电子集团股份有限公司","复旦微",,0,"C39","计算机、通信和其他电子设备制造业","上海","杨浦区",,,,"C","上海-杨浦区",,
"4654cdf47828151a97dc9c7b567c0d17","青岛易来智能科技股份有限公司","易来智能",,0,"C38","电气机械和器材制造业","山东","青岛市",,,,"C","山东-青岛市",,
"8eed44ace9d44ac5bf8a481fc6da1a7f","广东芳源环保股份有限公司","芳源股份",,0,"C39","计算机、通信和其他电子设备制造业","广东","江门市",,,,"C","广东-江门市",,
"d9f3a701474bc3b535bf77221bf0f6dc","广州禾信仪器股份有限公司","禾信仪器",,0,"C40","仪器仪表制造业","广东","广州市",,,,"C","广东-广州市",,
"adf9d5231df274288f2ff3705043f830","康希诺生物股份公司","康希诺",,0,"C27","医药制造业","天津","滨海新区",,,,"C","天津-滨海新区",,
"9391ea1b79ce67cb819865f2749aff44","中铁高铁电气装备股份有限公司","高铁电气",,0,"C37","铁路、船舶、航空航天和其他运输设备制造业","陕西","宝鸡市",,,,"C","陕西-宝鸡市",,
"efe0441000a974f42b249c2fe9853e78","新疆大全新能源股份有限公司","新疆大全",,0,"C39","计算机、通信和其他电子设备制造业","新疆","自治区直辖县级行政区划",,,,"C","新疆-自治区直辖县级行政区划",,
"5ba182f8efee0e9e4a653dae11a5dc82","依图科技有限公司","依图科技",,0,"I65","软件和信息技术服务业","境外","境外",,,,"I","境外",,
"201b8321e8c828fe87f0ea36be6a66b9","厦门厦钨新能源材料股份有限公司","厦钨新能",,0,"C39","计算机、通信和其他电子设备制造业","福建","厦门市",,,,"C","福建-厦门市",,
"d05517edc4bf61cfda811276d8f975b8","浙江和达科技股份有限公司","和达科技",,0,"I65","软件和信息技术服务业","浙江","嘉兴市",,,,"I","浙江-嘉兴市",,
"b5adb3abbe8a03c861f8fa6b204dc930","吉利汽车控股有限公司","吉利汽车",,0,"C36","汽车制造业","境外","境外",,,,"C","境外",,
"70528e81a230b8f615408708ded79836","北京乐普诊断科技股份有限公司","乐普诊断",,0,"C27","医药制造业","北京","昌平区",,,,"C","北京-昌平区",,
"02b51f5643260617ccadb19958a6051f","青岛中科英泰商用系统股份有限公司","中科英泰",,0,"C39","计算机、通信和其他电子设备制造业","山东","青岛市",,,,"C","山东-青岛市",,
"1f42653cbf91f91215f88b726fb1e669","安徽容知日新科技股份有限公司","容知日新",,0,"C40","仪器仪表制造业","安徽","合肥市",,,,"C","安徽-合肥市",,
"18f2d682297fc70d096896507c321ba5","深圳市倍轻松科技股份有限公司","倍轻松",,0,"C39","计算机、通信和其他电子设备制造业","广东","深圳市",,,,"C","广东-深圳市",,
"3bda976469578af9982d4ecae1082e72","中钢集团马鞍山矿山研究总院股份有限公司","中钢矿院",,0,"M74","专业技术服务业","安徽","马鞍山市",,,,"M","安徽-马鞍山市",,
"086561fe1f32a5c8573c86809825a140","科德数控股份有限公司","科德数控",,0,"C34","通用设备制造业","辽宁","大连市",,,,"C","辽宁-大连市",,
"a919be54d00251ebce225b336f789d0c","瑞能半导体科技股份有限公司","瑞能半导",,0,"C39","计算机、通信和其他电子设备制造业","江西","南昌市",,,,"C","江西-南昌市",,
"ec4cc8fee0dda91edf7f2e04c6d8f9c3","青岛达能环保设备股份有限公司","青达环保",,0,"C35","专用设备制造业","山东","青岛市",,,,"C","山东-青岛市",,
"299c5fd43d0f65eb9640d14a4a28f122","上海唯赛勃环保科技股份有限公司","唯赛勃",,0,"C35","专用设备制造业","上海","青浦区",,,,"C","上海-青浦区",,
"9edf91b8cf1930c73fee4ba79fb44011","苏州瑞可达连接系统股份有限公司","瑞可达",,0,"C39","计算机、通信和其他电子设备制造业","江苏","苏州市",,,,"C","江苏-苏州市",,
"671e87ce04dc7e2263db142df05cf143","湖南华纳大药厂股份有限公司","华纳药厂",,0,"C27","医药制造业","湖南","长沙市",,,,"C","湖南-长沙市",,
"e4a8cb3ecb063a9448fe1d3bd133e55b","上海华依科技集团股份有限公司","华依科技",,0,"C35","专用设备制造业","上海","浦东新区",,,,"C","上海-浦东新区",,
"3c6056073ecdfac43d77eedc5a1cd1bc","四川天微电子股份有限公司","天微电子",,0,"C39","计算机、通信和其他电子设备制造业","四川","成都市",,,,"C","四川-成都市",,
"feafad34d2bc034afd2d9bdd7f8ca3c7","杭州宏华数码科技股份有限公司","宏华数码",,0,"C35","专用设备制造业","浙江","杭州市",,,,"C","浙江-杭州市",,
"02c276f1272bc5ad48d7a30e82bbe338","江苏金迪克生物技术股份有限公司","金迪克",,0,"C27","医药制造业","江苏","泰州市",,,,"C","江苏-泰州市",,
"1e1042f8d2209eb290304c48e2275508","山东威高骨科材料股份有限公司","威高骨科",,0,"C35","专用设备制造业","山东","威海市",,,,"C","山东-威海市",,
"24f2af675531ff27b51552b6bb66cd7a","武汉中科通达高新技术股份有限公司","中科通达",,0,"I65","软件和信息技术服务业","湖北","武汉市",,,,"I","湖北-武汉市",,
"5952c9e466b3a12ed88c0c3068aedefb","正元地理信息集团股份有限公司","正元地信",,0,"M74","专业技术服务业","北京","顺义区",,,,"M","北京-顺义区",,
"ea3e491cf7746d711f72ce6c4aabbe8f","贵州航宇科技发展股份有限公司","航宇科技",,0,"C37","铁路、船舶、航空航天和其他运输设备制造业","贵州","贵阳市",,,,"C","贵州-贵阳市",,
"52b08988e02d81c7ac68e2edf82a2c04","广东利元亨智能装备股份有限公司","利元亨",,0,"C35","专用设备制造业","广东","惠州市",,,,"C","广东-惠州市",,
"2f4cae31757eeb80f6a3c3c391f56f38","合肥工大高科信息科技股份有限公司","工大高科",,0,"C37","铁路、船舶、航空航天和其他运输设备制造业","安徽","合肥市",,,,"C","安徽-合肥市",,
"84e6cfa8722203b24cc3c94f49f47e7e","山东英科环保再生资源股份有限公司","英科环保",,0,"C42","废弃资源综合利用业","山东","淄博市",,,,"C","山东-淄博市",,
"335b552b2d4b5577a103398db29babbb","旭宇光电（深圳）股份有限公司","旭宇光电",,0,"C39","计算机、通信和其他电子设备制造业","广东","深圳市",,,,"C","广东-深圳市",,
"922f0425bf4fd6d1060aa8d6e97ef85b","金冠电气股份有限公司","金冠电气",,0,"C38","电气机械和器材制造业","河南","南阳市",,,,"C","河南-南阳市",,
"3600969fd8b5c4acf8e74e0140b4a05e","苏州瑞博生物技术股份有限公司","瑞博生物",,0,"C27","医药制造业","江苏","苏州市",,,,"C","江苏-苏州市",,
"6405e32317d2930f59dc5e3169ab890c","北京阳光诺和药物研究股份有限公司","阳光诺和",,0,"M73","研究和试验发展","北京","昌平区",,,,"M","北京-昌平区",,
"0cb0469df59c8213feabbf7678dfbfe7","气派科技股份有限公司","气派科技",,0,"C39","计算机、通信和其他电子设备制造业","广东","深圳市",,,,"C","广东-深圳市",,
"ddcc53dd97f094bb3a9acd576715e37f","中国铁建重工集团股份有限公司","铁建重工",,0,"C35","专用设备制造业","湖南","长沙市",,,,"C","湖南-长沙市",,
"5f055e76b3cc0ac18799b933fa6d263b","威腾电气集团股份有限公司","威腾电气",,0,"C38","电气机械和器材制造业","江苏","镇江市",,,,"C","江苏-镇江市",,
"0417a18f7fe925da52c698ceb55aa326","浙江日风电气股份有限公司","日风电气",,0,"C38","电气机械和器材制造业","浙江","杭州市",,,,"C","浙江-杭州市",,
"56155ce75415d91ba6ece28470b93643","北京煜邦电力技术股份有限公司","煜邦电力",,0,"C40","仪器仪表制造业","北京","昌平区",,,,"C","北京-昌平区",,
"1cb0eaeb8c0ae1e3e732114160502388","昆山东威科技股份有限公司","东威科技",,0,"C35","专用设备制造业","江苏","苏州市",,,,"C","江苏-苏州市",,
"32ebda27454fa6ba00f79ca625d80e50","唐山百川智能机器股份有限公司","百川智能",,0,"C37","铁路、船舶、航空航天和其他运输设备制造业","河北","唐山市",,,,"C","河北-唐山市",,
"d0e5400e0b33792c395de15a3280e80e","中国科学院沈阳科学仪器股份有限公司","中科仪",,0,"C34","通用设备制造业","辽宁","沈阳市",,,,"C","辽宁-沈阳市",,
"c1a24f7476fc626ae356f6642eb57ff5","苏州纳微科技股份有限公司","纳微科技",,0,"C26","化学原料和化学制品制造业","江苏","苏州市",,,,"C","江苏-苏州市",,
"f84b419a59ed5a0669ef66c2a4ee676b","成都欧林生物科技股份有限公司","欧林生物",,0,"C27","医药制造业","四川","成都市",,,,"C","四川-成都市",,
"34a11c3856a0a777fe60061fa6436865","爱威科技股份有限公司","爱威科技",,0,"C35","专用设备制造业","湖南","长沙市",,,,"C","湖南-长沙市",,
"f10291a99fa66f270b7c3428862b69f9","山东科汇电力自动化股份有限公司","科汇股份",,0,"C38","电气机械和器材制造业","山东","淄博市",,,,"C","山东-淄博市",,
"293ea984adbc5c271e9a3baf9791f43e","上海皓元医药股份有限公司","皓元医药",,0,"M73","研究和试验发展","上海","浦东新区",,,,"M","上海-浦东新区",,
"ba0302426c99fc8012ff14c5c5aa961f","无锡力芯微电子股份有限公司","力芯微",,0,"C39","计算机、通信和其他电子设备制造业","江苏","无锡市",,,,"C","江苏-无锡市",,
"f4b73f2f3446bfa252c8c3b1a4193563","呈和科技股份有限公司","呈和科技",,0,"C26","化学原料和化学制品制造业","广东","广州市",,,,"C","广东-广州市",,
"9e3c36ee192b597e0f369c2685790ade","西安凯立新材料股份有限公司","西安凯立",,0,"C26","化学原料和化学制品制造业","陕西","西安市",,,,"C","陕西-西安市",,
"452ba8dda6d982a9c041d67d5c18a6ed","上海冠龙阀门节能设备股份有限公司","冠龙股份",,0,"C34","通用设备制造业","上海","嘉定区",,,,"C","上海-嘉定区",,
"3a0ea2859da466dbb3050f4f1f3298c4","成都圣诺生物科技股份有限公司","圣诺生物",,0,"C27","医药制造业","四川","成都市",,,,"C","四川-成都市",,
"6d0ce1879b613d1b232f25ce6e8f06e4","深圳市核达中远通电源技术股份有限公司","中远通",,0,"C38","电气机械和器材制造业","广东","深圳市",,,,"C","广东-深圳市",,
"90493d5306ec1b5a46bc6895b2a61a92","苏州快可光伏电子股份有限公司","快可电子",,0,"C38","电气机械和器材制造业","江苏","苏州市",,,,"C","江苏-苏州市",,
"0f9b913570726f4e68a70e8e223bed08","上海奥普生物医药股份有限公司","奥普生物",,0,"C27","医药制造业","上海","浦东新区",,,,"C","上海-浦东新区",,
"cc9a9e3f8a7916458710deb6138d083d","武汉珈创生物技术股份有限公司","珈创生物",,0,"M74","专业技术服务业","湖北","武汉市",,,,"M","湖北-武汉市",,
"7d4da98e569ccede8f43f49ad8b7e40d","广东博力威科技股份有限公司","博力威",,0,"C38","电气机械和器材制造业","广东","东莞市",,,,"C","广东-东莞市",,
"1bea0c2448e81e2b2b8a0426f8a2fd35","上海和辉光电股份有限公司","和辉光电",,0,"C39","计算机、通信和其他电子设备制造业","上海","金山区",,,,"C","上海-金山区",,
"7579deabcc34769faabf2be28af867ac","上海电气风电集团股份有限公司","电气风电",,0,"C34","通用设备制造业","上海","闵行区",,,,"C","上海-闵行区",,
"d684388a0b32f5984de9931f67848e07","西安康拓医疗技术股份有限公司","康拓医疗",,0,"C35","专用设备制造业","陕西","西安市",,,,"C","陕西-西安市",,
"883c803497447c7dd6fc3e9805bc4921","深圳微众信用科技股份有限公司","微众信科",,0,"I65","软件和信息技术服务业","广东","深圳市",,,,"I","广东-深圳市",,
"212f0ef35757100046baba8ce89c64df","江苏诺泰澳赛诺生物制药股份有限公司","诺泰生物",,0,"C27","医药制造业","江苏","连云港市",,,,"C","江苏-连云港市",,
"074d4fd2b8cfc9b2e467f36c37090db6","广州三孚新材料科技股份有限公司","三孚新科",,0,"C26","化学原料和化学制品制造业","广东","广州市",,,,"C","广东-广州市",,
"1aba63ff0fd447067f93ef5d57cbc9a4","奥精医疗科技股份有限公司","奥精医疗",,0,"C35","专用设备制造业","北京","海淀区",,,,"C","北京-海淀区",,
"6b4ba9775aa802295e7d9908e5aad91c","江苏迈信林航空科技股份有限公司","迈信林",,0,"C37","铁路、船舶、航空航天和其他运输设备制造业","江苏","苏州市",,,,"C","江苏-苏州市",,
"34455c4b2f7bec09da409aec6d619ec5","浙江海盐力源环保科技股份有限公司","力源环保",,0,"N77","生态保护和环境治理业","浙江","嘉兴市",,,,"N","浙江-嘉兴市",,
"dd5d34ddb4cadad4d24b043793753c91","上海睿昂基因科技股份有限公司","睿昂基因",,0,"C27","医药制造业","上海","奉贤区",,,,"C","上海-奉贤区",,
"c9effc220d5f8e78e4a6d0cced343d92","博众精工科技股份有限公司","博众精工",,0,"C35","专用设备制造业","江苏","苏州市",,,,"C","江苏-苏州市",,
"b88fff92c7d52b1e12bcc9bc0616666a","广东芬尼科技股份有限公司","芬尼科技",,0,"C34","通用设备制造业","广东","广州市",,,,"C","广东-广州市",,
"458f31bebb211ba79388de3f520af956","宁波环洋新材料股份有限公司","环洋股份",,0,"C26","化学原料和化学制品制造业","浙江","宁波市",,,,"C","浙江-宁波市",,
"c76d8be39f6a0e58ff1106c350693a77","苏州明志科技股份有限公司","明志科技",,0,"C33","金属制品业","江苏","苏州市",,,,"C","江苏-苏州市",,
"ad8f635780a3f3e87c68e0885fe319be","京东数字科技控股股份有限公司","京东数科",,0,"I65","软件和信息技术服务业","北京","大兴区",,,,"I","北京-大兴区",,
"570d4ee12cc50a72fbf0267bf2bff26e","深圳新益昌科技股份有限公司","新益昌",,0,"C35","专用设备制造业","广东","深圳市",,,,"C","广东-深圳市",,
"3a795e463c72eaeab371a3933e4d14d8","深圳市正弦电气股份有限公司","正弦电气",,0,"C38","电气机械和器材制造业","广东","深圳市",,,,"C","广东-深圳市",,
"55fa281281b3bcbceb3edb8dc296f9d9","深圳市迅捷兴科技股份有限公司","迅捷兴",,0,"C39","计算机、通信和其他电子设备制造业","广东","深圳市",,,,"C","广东-深圳市",,
"1cb0dc656deace0b1a0aac87fd619615","北京天广实生物技术股份有限公司","天广实",,0,"C27","医药制造业","北京","大兴区",,,,"C","北京-大兴区",,
"70a8b65e94920733f094f1f91e2a487b","吉林省中研高分子材料股份有限公司","中研股份",,0,"C26","化学原料和化学制品制造业","吉林","长春市",,,,"C","吉林-长春市",,
"ca26e37cc74a63338f86784f79b034e2","广州广合科技股份有限公司","广合科技",,0,"C39","计算机、通信和其他电子设备制造业","广东","广州市",,,,"C","广东-广州市",,
"ce1e161556f16887c178f620b7a1c764","北京信安世纪科技股份有限公司","信安世纪",,0,"I65","软件和信息技术服务业","北京","海淀区",,,,"I","北京-海淀区",,
"2edb8eda6eece8dedee9c8d19b70e2bc","安徽华恒生物科技股份有限公司科创板IPO","华恒生物",,0,"C26","化学原料和化学制品制造业","安徽","合肥市",,,,"C","安徽-合肥市",,
"b77b3ac2d2e47ab57f181f2a2a32f87a","上海霍莱沃电子系统技术股份有限公司","霍莱沃",,0,"I65","软件和信息技术服务业","上海","浦东新区",,,,"I","上海-浦东新区",,
"434e728e6ee778385fa458dbc5808c63","深圳市亚辉龙生物科技股份有限公司","亚辉龙",,0,"C27","医药制造业","广东","深圳市",,,,"C","广东-深圳市",,
"388d5f92b5a87ef83b63c24d582cd7b9","深圳瑞华泰薄膜科技股份有限公司","瑞华泰",,0,"C29","橡胶和塑料制品业","广东","深圳市",,,,"C","广东-深圳市",,
"750cb68e91acea669973dfd543de8e4a","江苏联测机电科技股份有限公司","联测科技",,0,"C35","专用设备制造业","江苏","南通市",,,,"C","江苏-南通市",,
"08f44e6d185542a7bfa6fe7e127b2261","福建汇川物联网技术科技股份有限公司","汇川物联",,0,"I65","软件和信息技术服务业","福建","福州市",,,,"I","福建-福州市",,
"5e88843ff818afa45b91e22ed42eee3a","上海康鹏科技股份有限公司","康鹏科技",,0,"C26","化学原料和化学制品制造业","上海","普陀区",,,,"C","上海-普陀区",,
"05b624a23ab9324903a674ec5d14e798","成都智明达电子股份有限公司","智明达",,0,"C39","计算机、通信和其他电子设备制造业","四川","成都市",,,,"C","四川-成都市",,
"033d820e7b0a67612bf1f641e06ad831","苏州上声电子股份有限公司","上声电子",,0,"C39","计算机、通信和其他电子设备制造业","江苏","苏州市",,,,"C","江苏-苏州市",,
"12b70b221da045662b6e6d413e01b017","森泰英格（成都）数控刀具股份有限公司","森泰英格",,0,"C33","金属制品业","四川","成都市",,,,"C","四川-成都市",,
"bd699ced8ed421cf82813bc68f497e14","浙江齐治科技股份有限公司","齐治科技",,0,"I65","软件和信息技术服务业","浙江","杭州市",,,,"I","浙江-杭州市",,
"158007c4af6131524a730dd56b899cc6","佛山市联动科技股份有限公司","联动科技",,0,"C35","专用设备制造业","广东","佛山市",,,,"C","广东-佛山市",,
"f39468ec49cd1e6c80c845d3cefcf2d0","上海禾赛科技股份有限公司","禾赛科技",,0,"C39","计算机、通信和其他电子设备制造业","上海","嘉定区",,,,"C","上海-嘉定区",,
"f455f50530047f939c539370d1a7d4fc","北京诺禾致源科技股份有限公司","诺禾致源",,0,"M74","专业技术服务业","北京","昌平区",,,,"M","北京-昌平区",,
"447f3b7836fd135026727cf7ce4a9538","新风光电子科技股份有限公司首次公开发行股票并在科创板上市","新风光",,0,"C38","电气机械和器材制造业","山东","济宁市",,,,"C","山东-济宁市",,
"eaf3b38792133d3de46dd1aa461a3e7d","广东莱尔新材料科技股份有限公司","莱尔科技",,0,"C39","计算机、通信和其他电子设备制造业","广东","佛山市",,,,"C","广东-佛山市",,
"e425e6f17abc6a53fc977fe78fcc6984","杭州柯林电气股份有限公司","柯林电气",,0,"C38","电气机械和器材制造业","浙江","杭州市",,,,"C","浙江-杭州市",,
"02bcd5225642a37d63412a0860669dde","苏州昀冢电子科技股份有限公司","昀冢科技",,0,"C39","计算机、通信和其他电子设备制造业","江苏","苏州市",,,,"C","江苏-苏州市",,
"90552fd999408166d0133c3aba12d761","智洋创新科技股份有限公司首次公开发行股票并在科创板上市项目","智洋创新",,0,"I65","软件和信息技术服务业","山东","淄博市",,,,"I","山东-淄博市",,
"174fdef52b113ee28b02f4f16fe006b0","南通星球石墨股份有限公司","星球石墨",,0,"C35","专用设备制造业","江苏","南通市",,,,"C","江苏-南通市",,
"4072bf81d7efb47b1b7d7979b97046a5","苏州和林微纳科技股份有限公司","和林科技",,0,"C39","计算机、通信和其他电子设备制造业","江苏","苏州市",,,,"C","江苏-苏州市",,
"74d65a58a9b20ba4ae92241e20757720","慧翰微电子股份有限公司","慧翰股份",,0,"C39","计算机、通信和其他电子设备制造业","福建","福州市",,,,"C","福建-福州市",,
"3490fb0bebb8e1b72327d536a0e4d91b","朝阳微电子科技股份有限公司","朝微电子",,0,"C39","计算机、通信和其他电子设备制造业","辽宁","朝阳市",,,,"C","辽宁-朝阳市",,
"2da8a912a2b33eb258466557475d4c11","广东九联科技股份有限公司","九联科技",,0,"C39","计算机、通信和其他电子设备制造业","广东","惠州市",,,,"C","广东-惠州市",,
"4406b521e3a1196b614617e50508a956","无锡市尚沃医疗电子股份有限公司","尚沃医疗",,0,"C35","专用设备制造业","江苏","无锡市",,,,"C","江苏-无锡市",,
"d0ced8a7ce2242c01b2014009e27fafd","浙江开创环保科技股份有限公司","开创环保",,0,"C35","专用设备制造业","浙江","杭州市",,,,"C","浙江-杭州市",,
"bdf5ad0584e92e0f4c0113d23dc56367","河南翔宇医疗设备股份有限公司","翔宇医疗",,0,"C35","专用设备制造业","河南","安阳市",,,,"C","河南-安阳市",,
"4dc76c946754fa2b2cefd10c2b9b16ff","南亚新材料科技股份有限公司","南亚新材",,0,"C39","计算机、通信和其他电子设备制造业","上海","嘉定区",,,,"C","上海-嘉定区",,
"770c8fd1087e2ef0d46860470affdeee","河南仕佳光子科技股份有限公司","仕佳光子",,0,"C39","计算机、通信和其他电子设备制造业","河南","鹤壁市",,,,"C","河南-鹤壁市",,
"b72ea88909157df0d4a8fa0131ed0551","成都盟升电子技术股份有限公司","盟升电子",,0,"C39","计算机、通信和其他电子设备制造业","四川","成都市",,,,"C","四川-成都市",,
"5963dc3fba1d10bf0f55a6d2c8ae62fc","青岛高测科技股份有限公司","高测股份",,0,"C35","专用设备制造业","山东","青岛市",,,,"C","山东-青岛市",,
"0ee911bb01c21b3ff7380e3d3546ca6e","北京赛科希德科技股份有限公司","赛科希德",,0,"C27","医药制造业","北京","昌平区",,,,"C","北京-昌平区",,
"3995f870fb7fbf754f7ec6247a1f4942","奇安信科技集团股份有限公司","奇安信",,0,"I65","软件和信息技术服务业","北京","西城区",,,,"I","北京-西城区",,
"cb779c448f49465f5e763a1eec53b705","合肥江航飞机装备股份有限公司","合肥江航",,0,"C37","铁路、船舶、航空航天和其他运输设备制造业","安徽","合肥市",,,,"C","安徽-合肥市",,
"3c7b564437ae58b593f6cb8afe7b0987","爱博诺德（北京）医疗科技股份有限公司","爱博诺德",,0,"C35","专用设备制造业","北京","昌平区",,,,"C","北京-昌平区",,
"4267dca096f15c76fcbc3bca85a8f200","贵州白山云科技股份有限公司","白山科技",,0,"I64","互联网和相关服务","贵州","贵阳市",,,,"I","贵州-贵阳市",,
"8fcf15f36f84f28435da047a806e65c7","无锡德林海环保科技股份有限公司","德林海",,0,"N77","生态保护和环境治理业","江苏","无锡市",,,,"N","江苏-无锡市",,
"fe13ca619b5dbaa9123e48ba9d6396e8","深圳市力合微电子股份有限公司","力合微",,0,"C39","计算机、通信和其他电子设备制造业","广东","深圳市",,,,"C","广东-深圳市",,
"b5e460fe235835cf3ce98ff483fb4129","安徽大地熊新材料股份有限公司","大地熊",,0,"C39","计算机、通信和其他电子设备制造业","安徽","合肥市",,,,"C","安徽-合肥市",,
"7978012205e7d8a0426a52bbb524e3c8","中芯国际集成电路制造有限公司","中芯国际",,0,"C39","计算机、通信和其他电子设备制造业","境外","境外",,,,"C","境外",,
"cb26da602f9227c2cda05d5f3713c3bd","无锡芯朋微电子股份有限公司","芯朋微",,0,"I65","软件和信息技术服务业","江苏","无锡市",,,,"I","江苏-无锡市",,
"01a33dedaed88f2632d6f0bfc2a6abfa","广东富信科技股份有限公司","富信科技",,0,"C39","计算机、通信和其他电子设备制造业","广东","佛山市",,,,"C","广东-佛山市",,
"0bad95ebb66c4a0bec0d51d5c27bdc50","安徽元琛环保科技股份有限公司","元琛科技",,0,"C35","专用设备制造业","安徽","合肥市",,,,"C","安徽-合肥市",,
"66f7bcb7b956d03074760362b6dd54c3","科美诊断技术股份有限公司","科美诊断",,0,"C27","医药制造业","北京","海淀区",,,,"C","北京-海淀区",,
"5681c10d84ab3c6762a5648405eece7c","腾景科技股份有限公司","腾景科技",,0,"C39","计算机、通信和其他电子设备制造业","福建","福州市",,,,"C","福建-福州市",,
"8e46858d85c4d9225cd754d11168e06b","合肥芯碁微电子装备股份有限公司","芯碁微装",,0,"C35","专用设备制造业","安徽","合肥市",,,,"C","安徽-合肥市",,
"3a66e9c162348d435d070d9fc11400a7","上海蓝科石化环保科技股份有限公司","蓝科环保",,0,"N77","生态保护和环境治理业","上海","嘉定区",,,,"N","上海-嘉定区",,
"6ea95843cbc97dd7de305f2d396cae0a","德威华泰科技股份有限公司","德威华泰",,0,"N77","生态保护和环境治理业","北京","海淀区",,,,"N","北京-海淀区",,
"663593d70eeab7ca47f30d4600efdc53","江苏国光信息产业股份有限公司","国光信息",,0,"C39","计算机、通信和其他电子设备制造业","江苏","常州市",,,,"C","江苏-常州市",,
"c57c3e791c4ccc762b57111eaf431353","安徽森泰木塑集团股份有限公司","森泰股份",,0,"C26","化学原料和化学制品制造业","安徽","宣城市",,,,"C","安徽-宣城市",,
"8d1e7eef04b88b3ad9cd5480dd4d2ed1","杭州品茗安控信息技术股份有限公司","品茗股份",,0,"I65","软件和信息技术服务业","浙江","杭州市",,,,"I","浙江-杭州市",,
"bc72da473981cb217cc82494b02248bd","紫泉能源技术股份有限公司","紫泉能源",,0,"M74","专业技术服务业","江苏","南京市",,,,"M","江苏-南京市",,
"44b63e0f66ef7cea7a387128b4ae6bb8","杭州百子尖","百子尖",,0,"C35","专用设备制造业","浙江","杭州市",,,,"C","浙江-杭州市",,
"4e661b94be9ec82be414ba652abaa441","博创智能装备股份有限公司","博创智能",,0,"C35","专用设备制造业","广东","广州市",,,,"C","广东-广州市",,
"d77a534faa28c14c9fd20596129ae69c","北京青云科技股份有限公司","青云科技",,0,"I65","软件和信息技术服务业","北京","朝阳区",,,,"I","北京-朝阳区",,
"735660f389161a5fc31effbe8b40222e","杭州奥泰生物技术股份有限公司","奥泰生物",,0,"C27","医药制造业","浙江","杭州市",,,,"C","浙江-杭州市",,
"c9c81845b0e0d350708f7400d0d71e6f","杭州西力智能科技股份有限公司","西力科技",,0,"C40","仪器仪表制造业","浙江","杭州市",,,,"C","浙江-杭州市",,
"3c77331c5948b51f25ff679df01df9e6","云知声智能科技股份有限公司","云知声",,0,"I65","软件和信息技术服务业","北京","海淀区",,,,"I","北京-海淀区",,
"c7c472d0255dde6b88cf72bbe9b5c212","深圳市柔宇科技股份有限公司","柔宇科技",,0,"C39","计算机、通信和其他电子设备制造业","广东","深圳市",,,,"C","广东-深圳市",,
"6fc188491b79a4318b4f375419093e70","武汉菱电汽车电控系统股份有限公司","菱电电控",,0,"C39","计算机、通信和其他电子设备制造业","湖北","武汉市",,,,"C","湖北-武汉市",,
"90661ef177bcb1457271ab5493daa89f","苏州艾隆科技股份有限公司","艾隆科技",,0,"C35","专用设备制造业","江苏","苏州市",,,,"C","江苏-苏州市",,
"07fc44606087e275650c422b9c113d79","深圳市深科达智能装备股份有限公司","深科达",,0,"C35","专用设备制造业","广东","深圳市",,,,"C","广东-深圳市",,
"25a0c3a1d94316d553c5facc5b8e4931","广州中望龙腾软件股份有限公司","中望软件",,0,"I65","软件和信息技术服务业","广东","广州市",,,,"I","广东-广州市",,
"d594e60c19fee524f2f65d979021cbc0","有研粉末新材料股份有限公司","有研粉末",,0,"C33","金属制品业","北京","怀柔区",,,,"C","北京-怀柔区",,
"35ec724b30e9f7b1d0012c34edcb4a10","成都极米科技股份有限公司","极米科技",,0,"C39","计算机、通信和其他电子设备制造业","四川","成都市",,,,"C","四川-成都市",,
"e72d6bbf4983ef36eeb6c31b72e8a682","海南金盘智能科技股份有限公司","金盘科技",,0,"C38","电气机械和器材制造业","海南","海口市",,,,"C","海南-海口市",,
"9562932f0b1c34cf84f49e9d9f0a500d","杭州美迪凯光电科技股份有限公司","美迪凯",,0,"C39","计算机、通信和其他电子设备制造业","浙江","杭州市",,,,"C","浙江-杭州市",,
"5e0676eeb166bf3ab0f205dc3e9a69c2","杭州爱科科技股份有限公司","爱科科技",,0,"C35","专用设备制造业","浙江","杭州市",,,,"C","浙江-杭州市",,
"d2fae6efa8305922c17355ca5170fba1","龙迅半导体（合肥）股份有限公司","龙迅股份",,0,"C39","计算机、通信和其他电子设备制造业","安徽","合肥市",,,,"C","安徽-合肥市",,
"236a35d51a8d0f80e92ec391aabf94da","锐芯微电子股份有限公司","锐芯微",,0,"I65","软件和信息技术服务业","江苏","苏州市",,,,"I","江苏-苏州市",,
"9a4d23dbb13715df4d34ccbadbe05653","浙江光华科技股份有限公司","光华科技",,0,"C26","化学原料和化学制品制造业","浙江","嘉兴市",,,,"C","浙江-嘉兴市",,
"96525ae6e0da13a451804598313027f7","丹娜（天津）生物科技股份有限公司","丹娜生物",,0,"C27","医药制造业","天津","滨海新区",,,,"C","天津-滨海新区",,
"853f422e7ccb388cbe6da8db0163a6ea","洛阳中超新材料股份有限公司首次公开发行并在科创板上市","中超股份",,0,"C30","非金属矿物制品业","河南","洛阳市",,,,"C","河南-洛阳市",,
"f87a56a7d5ed83fac82d815ff5adf4bf","北京中科晶上科技股份有限公司","中科晶上",,0,"C39","计算机、通信和其他电子设备制造业","北京","海淀区",,,,"C","北京-海淀区",,
"49445775e3167953ce33b0deca925361","罗普特科技集团股份有限公司","罗普特",,0,"I65","软件和信息技术服务业","福建","厦门市",,,,"I","福建-厦门市",,
"b26f47829ced9ef2f28d77b3fc75e278","广东鸿铭智能股份有限公司","鸿铭股份",,0,"C35","专用设备制造业","广东","东莞市",,,,"C","广东-东莞市",,
"10800d55b66c31a9b9f8dc32c0165b84","包头天和磁材科技股份有限公司","天和磁材",,0,"C39","计算机、通信和其他电子设备制造业","内蒙古","包头市",,,,"C","内蒙古-包头市",,
"d5d7edfa9031edc684a833bee29bd51c","成都纵横自动化技术股份有限公司","纵横股份",,0,"C37","铁路、船舶、航空航天和其他运输设备制造业","四川","成都市",,,,"C","四川-成都市",,
"59479802d3a5b0be11b01615f0f81336","株洲华锐精密工具股份有限公司","华锐工具",,0,"C33","金属制品业","湖南","株洲市",,,,"C","湖南-株洲市",,
"ac18dd26acfba9cd0300470d4dc6a3a3","青岛海泰新光科技股份有限公司","海泰新光",,0,"C35","专用设备制造业","山东","青岛市",,,,"C","山东-青岛市",,
"d9393e5d9ceeaf86042bba02c1433abb","上海拓璞数控科技股份有限公司","上海拓璞",,0,"C34","通用设备制造业","上海","闵行区",,,,"C","上海-闵行区",,
"ccc64bca12ceb43245593b0864b5b61c","天士力生物医药股份有限公司","天士生物",,0,"C27","医药制造业","上海","浦东新区",,,,"C","上海-浦东新区",,
"a02b433a22bb3f8489fa1322c714a6e7","北京凯因科技股份有限公司","凯因科技",,0,"C27","医药制造业","北京","大兴区",,,,"C","北京-大兴区",,
"3c4f15676d3ae16c37a4acbbf0cee805","生益电子股份有限公司","生益电子",,0,"C39","计算机、通信和其他电子设备制造业","广东","东莞市",,,,"C","广东-东莞市",,
"ac1bdb4a2b0a389c6b3189d6456081c0","四方光电股份有限公司","四方光电",,0,"C39","计算机、通信和其他电子设备制造业","湖北","武汉市",,,,"C","湖北-武汉市",,
"4a51caa6e0a9656bd93537c91d32ac2d","北京芯愿景软件技术股份有限公司","芯愿景",,0,"I65","软件和信息技术服务业","北京","海淀区",,,,"I","北京-海淀区",,
"65bc6bbb67015e30226249f2e49ad9cd","苏州康代智能科技股份有限公司","康代智能",,0,"C40","仪器仪表制造业","江苏","苏州市",,,,"C","江苏-苏州市",,
"7822d502f1b865ab5e9626fd397197f8","江苏康众数字医疗科技股份有限公司","康众医疗",,0,"C35","专用设备制造业","江苏","苏州市",,,,"C","江苏-苏州市",,
"adfbd3d70c7e39c579bf60f17cb95d25","优利德科技（中国）股份有限公司","优利德",,0,"C40","仪器仪表制造业","广东","东莞市",,,,"C","广东-东莞市",,
"ea0fd4413711259b016adc88d0b35af8","山西锦波生物医药股份有限公司","锦波生物",,0,"C27","医药制造业","山西","太原市",,,,"C","山西-太原市",,
"db91b438bc950155a9dd38556945b8b2","江苏正济药业股份有限公司","正济药业",,0,"C27","医药制造业","江苏","淮安市",,,,"C","江苏-淮安市",,
"d73d20957258fc0e6189e597b9102d89","昆腾微电子股份有限公司","昆腾微",,0,"C39","计算机、通信和其他电子设备制造业","北京","海淀区",,,,"C","北京-海淀区",,
"db0ada4d084c7543129b4d67b66311e7","江苏富淼科技股份有限公司","富淼科技",,0,"C26","化学原料和化学制品制造业","江苏","苏州市",,,,"C","江苏-苏州市",,
"b512dc726b4cd12add4b950afa0c3fb2","广东聚石化学股份有限公司","聚石化学",,0,"C29","橡胶和塑料制品业","广东","清远市",,,,"C","广东-清远市",,
"03d8950800e1cf312041c328562f4401","常州银河世纪微电子股份有限公司","银河微电",,0,"C39","计算机、通信和其他电子设备制造业","江苏","常州市",,,,"C","江苏-常州市",,
"abc43d0f548c6b83342f25d4c8c9bd73","成都新朝阳作物科学股份有限公司","新朝阳",,0,"C26","化学原料和化学制品制造业","四川","成都市",,,,"C","四川-成都市",,
"aa4d2cc473ca7b276986439ffe2a3c19","云南北方奥雷德光电科技股份有限公司","奥雷德",,0,"C39","计算机、通信和其他电子设备制造业","云南","昆明市",,,,"C","云南-昆明市",,
"bc973ee0792d9275dd785ea7021fa87a","天能电池集团股份有限公司","天能股份",,0,"C38","电气机械和器材制造业","浙江","湖州市",,,,"C","浙江-湖州市",,
"29ba12961249868111f1fe89dc150ef3","上海健耕医药科技股份有限公司","健耕医药",,0,"C35","专用设备制造业","上海","闵行区",,,,"C","上海-闵行区",,
"aa841e4615ba5f271a6924ee9316045c","江苏浩欧博生物医药股份有限公司","浩欧博",,0,"C27","医药制造业","江苏","苏州市",,,,"C","江苏-苏州市",,
"a7a516013c6083e945cb56a656e781cf","上海海优威新材料股份有限公司","海优新材",,0,"C29","橡胶和塑料制品业","上海","浦东新区",,,,"C","上海-浦东新区",,
"1f8a1ffaca9154badc38f826f83d7595","江苏微导纳米科技股份有限公司","微导纳米",,0,"C35","专用设备制造业","江苏","无锡市",,,,"C","江苏-无锡市",,
"6ff5c6348aab1f227ef2f57c344c0e15","上海泽生科技开发股份有限公司","泽生科技",,0,"C27","医药制造业","上海","浦东新区",,,,"C","上海-浦东新区",,
"94834abc7b80e8832b946f0fcbcb53fb","深圳惠泰医疗器械股份有限公司","惠泰医疗",,0,"C35","专用设备制造业","广东","深圳市",,,,"C","广东-深圳市",,
"42879792922f6b6c8896e40b551d57fe","上海之江生物科技股份有限公司","之江生物",,0,"C27","医药制造业","上海","浦东新区",,,,"C","上海-浦东新区",,
"8a775be3f59abcd63a4736f9c4d5960c","广东奥普特科技股份有限公司","奥普特",,0,"C40","仪器仪表制造业","广东","东莞市",,,,"C","广东-东莞市",,
"829b05919723e58c1a715bfdeeaf357a","上海合晶硅材料股份有限公司","上海合晶",,0,"C39","计算机、通信和其他电子设备制造业","上海","松江区",,,,"C","上海-松江区",,
"0bf5f3e3e2f8d7798f2a3bbf8f11c5b5","赛克赛斯生物科技股份有限公司","赛克赛斯",,0,"C35","专用设备制造业","山东","济南市",,,,"C","山东-济南市",,
"ecd85f5c599bdd3178211411254090e5","艾索信息股份有限公司","艾索信息",,0,"C39","计算机、通信和其他电子设备制造业","陕西","西安市",,,,"C","陕西-西安市",,
"adae2e5cfd7fe7b8a5566efa128d0da8","泰州亿腾景昂药业股份有限公司","亿腾景昂",,0,"C27","医药制造业","江苏","泰州市",,,,"C","江苏-泰州市",,
"db639ce86eab7ec0f7989644678fd363","青岛中加特电气股份有限公司","中加特",,0,"C35","专用设备制造业","山东","青岛市",,,,"C","山东-青岛市",,
"6adf8febdafe41a45e82886cbf70113b","福立旺精密机电（中国）股份有限公司","福立旺",,0,"C34","通用设备制造业","江苏","苏州市",,,,"C","江苏-苏州市",,
"fdd1e600b80bfcbb4edc35394e5815d4","深圳市三旺通信股份有限公司","三旺通信",,0,"C39","计算机、通信和其他电子设备制造业","广东","深圳市",,,,"C","广东-深圳市",,
"68c3beb60c78b93d29fc0e9ce17ad360","上海派能能源科技股份有限公司","派能科技",,0,"C38","电气机械和器材制造业","上海","浦东新区",,,,"C","上海-浦东新区",,
"41f013a8873c7c3dc2e37f77eba0a627","苏州伟创电气科技股份有限公司IPO","伟创电气",,0,"C40","仪器仪表制造业","江苏","苏州市",,,,"C","江苏-苏州市",,
"13f7fb20c8231c9b521e4b3293c9ccf1","东软医疗系统股份有限公司","东软医疗",,0,"C35","专用设备制造业","辽宁","沈阳市",,,,"C","辽宁-沈阳市",,
"cf3104f44e21968fb0f5795e92627f7e","长沙兴嘉生物工程股份有限公司","兴嘉生物",,0,"C14","食品制造业","湖南","长沙市",,,,"C","湖南-长沙市",,
"1fa5154c78a0baa80247bc5e51d78c42","安徽省通源环境节能股份有限公司","通源环境",,0,"N77","生态保护和环境治理业","安徽","合肥市",,,,"N","安徽-合肥市",,
"504e954e8c8b735e44bf574c3555b563","悦康药业集团股份有限公司","悦康药业",,0,"C27","医药制造业","北京","大兴区",,,,"C","北京-大兴区",,
"3ccb94a8f41928ed6e1967046fd495db","明冠新材料股份有限公司","明冠新材",,0,"C29","橡胶和塑料制品业","江西","宜春市",,,,"C","江西-宜春市",,
"b72f9d0299a966aa6f846a46b808fb46","无锡航亚科技股份有限公司","航亚科技",,0,"C37","铁路、船舶、航空航天和其他运输设备制造业","江苏","无锡市",,,,"C","江苏-无锡市",,
"2fa1c5c74d3a150598b6ad12d2e217fc","深圳市明微电子股份有限公司","明微电子",,0,"I65","软件和信息技术服务业","广东","深圳市",,,,"I","广东-深圳市",,
"3168e460d33e6260f72cbf304d39933e","东莞市鼎通精密科技股份有限公司","鼎通精密",,0,"C39","计算机、通信和其他电子设备制造业","广东","东莞市",,,,"C","广东-东莞市",,
"37f10e91255b842efaca6c866a5e4320","深圳汉弘数字印刷集团股份有限公司","汉弘集团",,0,"C35","专用设备制造业","广东","深圳市",,,,"C","广东-深圳市",,
"dce6191f12c52e01f4c74be22f33e5c8","株洲欧科亿数控精密刀具股份有限公司","欧科亿",,0,"C33","金属制品业","湖南","株洲市",,,,"C","湖南-株洲市",,
"6c878b9dc68f5749f285541aa02b4f6f","科兴生物制药股份有限公司","科兴制药",,0,"C27","医药制造业","山东","济南市",,,,"C","山东-济南市",,
"79d046bb60a59ce3627bba45cf5e64ed","恒玄科技（上海）股份有限公司","恒玄科技",,0,"C39","计算机、通信和其他电子设备制造业","上海","浦东新区",,,,"C","上海-浦东新区",,
"8ebf58873c4423904be640a1e473dc1e","江苏柯菲平医药股份有限公司","柯菲平",,0,"C27","医药制造业","江苏","南京市",,,,"C","江苏-南京市",,
"c62832ca99551bf633577708f665eab5","上海艾力斯医药科技股份有限公司","艾力斯",,0,"C27","医药制造业","上海","浦东新区",,,,"C","上海-浦东新区",,
"326bc682e76ad0692338c152eabc7b6e","杭华油墨股份有限公司","杭华股份",,0,"C26","化学原料和化学制品制造业","浙江","杭州市",,,,"C","浙江-杭州市",,
"2ee388ec9ed0e99ca611902e58262f9d","上海新致软件股份有限公司","新致软件",,0,"I65","软件和信息技术服务业","上海","浦东新区",,,,"I","上海-浦东新区",,
"2abd7752ae6e18bd215b0b2f5e577d94","宁波天益医疗器械股份有限公司","天益医疗",,0,"C35","专用设备制造业","浙江","宁波市",,,,"C","浙江-宁波市",,
"f6f5d8307e902ce33e2938b700385b15","广州市溢信科技股份有限公司","溢信科技",,0,"I65","软件和信息技术服务业","广东","广州市",,,,"I","广东-广州市",,
"8143faaf093c85731a0f795574a696ed","兰剑智能科技股份有限公司","兰剑智能",,0,"C34","通用设备制造业","山东","济南市",,,,"C","山东-济南市",,
"6198145d5a58d254cff55f369ee4b5d9","深圳市创鑫激光股份有限公司","创鑫激光",,0,"C35","专用设备制造业","广东","深圳市",,,,"C","广东-深圳市",,
"e5b7139657900b2a57d1c333839981f5","蚂蚁科技集团股份有限公司","蚂蚁集团",,0,"I64","互联网和相关服务","浙江","杭州市",,,,"I","浙江-杭州市",,
"0961154c2400aad7e3353b340016f65f","河南秋乐种业科技股份有限公司","秋乐种业",,0,"A01","农业","河南","郑州市",,,,"A","河南-郑州市",,
"ab2d32af7024f97e10b47c77e995ddee","北京天科合达半导体股份有限公司","天科合达",,0,"C39","计算机、通信和其他电子设备制造业","北京","大兴区",,,,"C","北京-大兴区",,
"074aae6fe38b65e6c613213eca3e007b","上海步科自动化股份有限公司","步科股份",,0,"C40","仪器仪表制造业","上海","浦东新区",,,,"C","上海-浦东新区",,
"072de47585684db532cb830e945b8837","浙江中控技术股份有限公司","中控技术",,0,"I65","软件和信息技术服务业","浙江","杭州市",,,,"I","浙江-杭州市",,
"1b29c896c53aa9b8b3f84f558b2ffbd8","江西金达莱环保股份有限公司","金达莱",,0,"N77","生态保护和环境治理业","江西","南昌市",,,,"N","江西-南昌市",,
"ac43a9ddd6352ce0fac3254aad5a11dc","广东利扬芯片测试股份有限公司","利扬芯片",,0,"C39","计算机、通信和其他电子设备制造业","广东","东莞市",,,,"C","广东-东莞市",,
"81310337418f6dd76a476215e4382ae4","大连豪森设备制造股份有限公司","豪森股份",,0,"C35","专用设备制造业","辽宁","大连市",,,,"C","辽宁-大连市",,
"a18601684b7abcdc38f15dd03f7daea3","深圳市万佳安物联科技股份有限公司","万佳安",,0,"C39","计算机、通信和其他电子设备制造业","广东","深圳市",,,,"C","广东-深圳市",,
"25b238db1a543d30fde87120b7132691","国网智能科技股份有限公司","国网智能",,0,"C35","专用设备制造业","山东","济南市",,,,"C","山东-济南市",,
"de292ef1ee37952c34f262ac8bbd9cac","会通新材料股份有限公司","会通新材",,0,"C29","橡胶和塑料制品业","安徽","合肥市",,,,"C","安徽-合肥市",,
"fdfe392c67deff1305a07e5cbd1badf2","上海博科资讯股份有限公司","博科资讯",,0,"I65","软件和信息技术服务业","上海","静安区",,,,"I","上海-静安区",,
"c16412b686df571ffb9de363b001019e","前沿生物药业（南京）股份有限公司","前沿生物",,0,"C27","医药制造业","江苏","南京市",,,,"C","江苏-南京市",,
"48c916152fb1a6ff182c56e85779cc52","九号有限公司","九号智能",,0,"C39","计算机、通信和其他电子设备制造业","境外","境外",,,,"C","境外",,
"77e96af9d81ca42f32e55d15c390ee6d","山东泰丰智能控制股份有限公司","泰丰智能",,0,"C34","通用设备制造业","山东","济宁市",,,,"C","山东-济宁市",,
"274915c22ed218c55f4ccdd57911a522","上海泰坦科技股份有限公司","泰坦科技",,0,"M73","研究和试验发展","上海","徐汇区",,,,"M","上海-徐汇区",,
"a452c4903513b659a7af7eed415cef18","深圳市科思科技股份有限公司","科思科技",,0,"C39","计算机、通信和其他电子设备制造业","广东","深圳市",,,,"C","广东-深圳市",,
"b6a9d0288a049026a7188185592c9361","传神语联网网络科技股份有限公司","传神语联",,0,"I65","软件和信息技术服务业","湖北","武汉市",,,,"I","湖北-武汉市",,
"c503627b0e9cf2d017fcbab896a9e960","上海宏力达信息技术股份有限公司","宏力达",,0,"C38","电气机械和器材制造业","上海","松江区",,,,"C","上海-松江区",,
"2bf5b442867d5473e3486c2953043301","上海阿拉丁生化科技股份有限公司","阿拉丁",,0,"M73","研究和试验发展","上海","奉贤区",,,,"M","上海-奉贤区",,
"8fc0867fe22b31a44e60f9e2a7a5adee","东来涂料技术（上海）股份有限公司","东来股份",,0,"C26","化学原料和化学制品制造业","上海","嘉定区",,,,"C","上海-嘉定区",,
"6a363db935cf7ea9a2684346c12cfef2","天臣国际医疗科技股份有限公司","天臣医疗",,0,"C35","专用设备制造业","江苏","苏州市",,,,"C","江苏-苏州市",,
"7ea28cb3ce1f67d4257ddda30e49c790","江苏泛亚微透科技股份有限公司","泛亚微透",,0,"C29","橡胶和塑料制品业","江苏","常州市",,,,"C","江苏-常州市",,
"52f6a3160fd1017017e18cca0118a5ac","苏州世华新材料科技股份有限公司","世华新材",,0,"C39","计算机、通信和其他电子设备制造业","江苏","苏州市",,,,"C","江苏-苏州市",,
"7180ba5a47db3be3c40147b325e54f93","上纬新材料科技股份有限公司","上纬新材",,0,"C26","化学原料和化学制品制造业","上海","松江区",,,,"C","上海-松江区",,
"85e48e14412ea6385b221cb44735cfaf","精英数智科技股份有限公司","精英数智",,0,"I65","软件和信息技术服务业","山西","太原市",,,,"I","山西-太原市",,
"b1c53be3ac393f08459df2ad19bac297","桂林智神信息技术股份有限公司","智神信息",,0,"C39","计算机、通信和其他电子设备制造业","广西","桂林市",,,,"C","广西-桂林市",,
"f466f1b2cce55e332cfacf2b1ebfaae3","三生国健药业（上海）股份有限公司","三生国健",,0,"C27","医药制造业","上海","浦东新区",,,,"C","上海-浦东新区",,
"7bddba93b559063c472dabf561d73224","南京伟思医疗科技股份有限公司","伟思医疗",,0,"C35","专用设备制造业","江苏","南京市",,,,"C","江苏-南京市",,
"57a88b85a79b9859e60d6fc7d12b74ac","中科寒武纪科技股份有限公司","寒武纪",,0,"C39","计算机、通信和其他电子设备制造业","北京","海淀区",,,,"C","北京-海淀区",,
"e74bedd43de72fef95347e4a90474877","江苏艾迪药业股份有限公司","艾迪药业",,0,"C27","医药制造业","江苏","扬州市",,,,"C","江苏-扬州市",,
"48387db94e606ffc9c328e5701c8ff25","北京慧辰资道资讯股份有限公司","慧辰资讯",,0,"I64","互联网和相关服务","北京","海淀区",,,,"I","北京-海淀区",,
"962ab8d52ad90c5c8d3973da0d410460","济南恒誉环保科技股份有限公司首次公开发行股票并在科创板上市项目","恒誉环保",,0,"C35","专用设备制造业","山东","济南市",,,,"C","山东-济南市",,
"dd662b2dc0af8e520ecbc14b546ba307","深圳震有科技股份有限公司","震有科技",,0,"C39","计算机、通信和其他电子设备制造业","广东","深圳市",,,,"C","广东-深圳市",,
"8619175a7808fb61ff37b7d397532f67","埃夫特智能装备股份有限公司","埃夫特",,0,"C34","通用设备制造业","安徽","芜湖市",,,,"C","安徽-芜湖市",,
"0bdbc1dec48faabff18f572da9ed2ff8","山大地纬软件股份有限公司","山大地纬",,0,"I65","软件和信息技术服务业","山东","济南市",,,,"I","山东-济南市",,
"0e62dc1251f97bb6ba9b058774cc2193","中科星图股份有限公司","中科星图",,0,"I65","软件和信息技术服务业","北京","顺义区",,,,"I","北京-顺义区",,
"0571d8da73d33dbb31964ee55a87d6e8","江苏云涌电子科技股份有限公司","云涌科技",,0,"I65","软件和信息技术服务业","江苏","泰州市",,,,"I","江苏-泰州市",,
"743197f5099392a463f42667046126d3","微创（上海）网络技术股份有限公司首次公开发行股票并在科创板上市项目","微创网络",,0,"I65","软件和信息技术服务业","上海","闵行区",,,,"I","上海-闵行区",,
"e35a788490a665e5961a5ffd0dca1b13","南京迪威尔高端制造股份有限公司","迪威尔",,0,"C35","专用设备制造业","江苏","南京市",,,,"C","江苏-南京市",,
"99538b72e0b77a723cc796a69f8ad300","科大国盾量子技术股份有限公司","国盾量子",,0,"C39","计算机、通信和其他电子设备制造业","安徽","合肥市",,,,"C","安徽-合肥市",,
"7027a81e350b705507e78a91566f3ffe","北京天智航医疗科技股份有限公司","天智航",,0,"C35","专用设备制造业","北京","海淀区",,,,"C","北京-海淀区",,
"a32fce5670c3a93e44b5c9d99ddc0fc3","安徽皖仪科技股份有限公司","皖仪科技",,0,"C40","仪器仪表制造业","安徽","合肥市",,,,"C","安徽-合肥市",,
"ddd27b4ac1d6c26e3a1c5a6f523d86e7","广东晶科电子股份有限公司","晶科电子",,0,"C39","计算机、通信和其他电子设备制造业","广东","广州市",,,,"C","广东-广州市",,
"0a59d975132ef801a403eff4daa48aa5","成都秦川物联网科技股份有限公司","秦川物联",,0,"C40","仪器仪表制造业","四川","成都市",,,,"C","四川-成都市",,
"ce73a04c14b38ba2b494ca2eea0a371b","南通国盛智能科技集团股份有限公司","国盛智科",,0,"C34","通用设备制造业","江苏","南通市",,,,"C","江苏-南通市",,
"b038400b338920aa660953a6323de89b","深圳宜搜天下科技股份有限公司","宜搜科技",,0,"I64","互联网和相关服务","广东","深圳市",,,,"I","广东-深圳市",,
"d35f4c5eb643588561e2c7ae978eea04","苏州金宏气体股份有限公司","金宏气体",,0,"C26","化学原料和化学制品制造业","江苏","苏州市",,,,"C","江苏-苏州市",,
"dd24354f40679d03e1ab6cc240b8e020","泽达易盛（天津）科技股份有限公司","泽达易盛",,0,"I65","软件和信息技术服务业","天津","滨海新区",,,,"I","天津-滨海新区",,
"ef1a4d73f6ad2859fe27465a11d01828","上海君实生物医药科技股份有限公司","君实生物",,0,"C27","医药制造业","上海","浦东新区",,,,"C","上海-浦东新区",,
"6271a068b76e22e7a571bb793302777c","孚能科技（赣州）股份有限公司","孚能科技",,0,"C38","电气机械和器材制造业","江西","赣州市",,,,"C","江西-赣州市",,
"aa4a260a4a8751213bdea97b5889074b","威海市天罡仪表股份有限公司","天罡股份",,0,"C40","仪器仪表制造业","山东","威海市",,,,"C","山东-威海市",,
"9888b40e81479e4140dd798b5f8bb723","北京神州细胞生物技术集团股份公司","神州细胞",,0,"C27","医药制造业","北京","大兴区",,,,"C","北京-大兴区",,
"91e0f631172c6817341456ebaf0a85bc","河南科隆新能源股份有限公司","科隆新能",,0,"C39","计算机、通信和其他电子设备制造业","河南","新乡市",,,,"C","河南-新乡市",,
"23a9fab45a6c88e7d0d9aec7a4f30e19","深圳市联赢激光股份有限公司","联赢激光",,0,"C35","专用设备制造业","广东","深圳市",,,,"C","广东-深圳市",,
"d3ae4b89488faf08192755b6128b31f6","北京市博汇科技股份有限公司首次公开发行股票并在科创板上市项目","博汇科技",,0,"I65","软件和信息技术服务业","北京","海淀区",,,,"I","北京-海淀区",,
"acd959fc725dd49ee4b06ba0f153c836","上海复旦张江生物医药股份有限公司","复旦张江",,0,"C27","医药制造业","上海","浦东新区",,,,"C","上海-浦东新区",,
"0bc6b5439a6bc24766b25361f33f5e87","深圳市燕麦科技股份有限公司","燕麦科技",,0,"C35","专用设备制造业","广东","深圳市",,,,"C","广东-深圳市",,
"24311a678ab9e6d4b886f561d431775b","湖南松井新材料股份有限公司","松井新材",,0,"C26","化学原料和化学制品制造业","湖南","长沙市",,,,"C","湖南-长沙市",,
"17dfecad784d70bb9fd58fc7a7d5f077","天合光能股份有限公司","天合光能",,0,"C38","电气机械和器材制造业","江苏","常州市",,,,"C","江苏-常州市",,
"73e4a350d88b777d083db1fe9dd003ba","傲基科技股份有限公司","傲基科技",,0,"C39","计算机、通信和其他电子设备制造业","广东","深圳市",,,,"C","广东-深圳市",,
"b05cd0213ba4822ec0bedcc7fc5285af","博众精工科技股份有限公司","博众精工",,0,"C35","专用设备制造业","江苏","苏州市",,,,"C","江苏-苏州市",,
"05ed4e4849acf8f0016b1a6dcc679912","浙江德马科技股份有限公司首次公开发行股票并在科创板上市项目","德马科技",,0,"C34","通用设备制造业","浙江","湖州市",,,,"C","浙江-湖州市",,
"de685b4d89cd2ea6fbc6ee039273cd2c","湖南金博碳素股份有限公司","金博股份",,0,"C30","非金属矿物制品业","湖南","益阳市",,,,"C","湖南-益阳市",,
"cb7cf3f882d28c39d38ad875519bd808","无锡奥特维科技股份有限公司","奥特维",,0,"C35","专用设备制造业","江苏","无锡市",,,,"C","江苏-无锡市",,
"3312ea7df0a7547e8f24dc0445f2b8d0","罗克佳华科技集团股份有限公司","罗克佳华",,-999,"I65","软件和信息技术服务业","北京","通州区",,,,"I","北京-通州区",,
"c4406d063ed684e6402e1dddcf88c581","苏州工业园区凌志软件股份有限公司","凌志软件",,0,"I65","软件和信息技术服务业","江苏","苏州市",,,,"I","江苏-苏州市",,
"07a47941d7df220bb2b9dda36ce05b6e","江苏吉贝尔药业股份有限公司","吉贝尔",,0,"C27","医药制造业","江苏","镇江市",,,,"C","江苏-镇江市",,
"54c5daf910b3e8269d95074a1a8cfe64","金科环境股份有限公司","金科环境",,0,"N77","生态保护和环境治理业","北京","朝阳区",,,,"N","北京-朝阳区",,
"51e7e7c741ac77a1c3f2b1cd98e7fac3","杭州光云科技股份有限公司","光云科技",,0,"I65","软件和信息技术服务业","浙江","杭州市",,,,"I","浙江-杭州市",,
"203dcda7ec0005f83b7298ff200346c6","深圳市财富趋势科技股份有限公司","财富趋势",,0,"I65","软件和信息技术服务业","广东","深圳市",,,,"I","广东-深圳市",,
"6c08f7d01caf1cc8e57b18a1aaf38c15","成都先导药物开发股份有限公司","成都先导",,0,"M73","研究和试验发展","四川","成都市",,,,"M","四川-成都市",,
"62741fbe1c021a167622f9e6da8cfbe3","上海硅产业集团股份有限公司","硅产业",,0,"C39","计算机、通信和其他电子设备制造业","上海","嘉定区",,,,"C","上海-嘉定区",,
"66bb83e862f8928098824c0c47651d7d","上海三友医疗器械股份有限公司","三友医疗",,0,"C35","专用设备制造业","上海","嘉定区",,,,"C","上海-嘉定区",,
"557ee50f63ae039c65430f036f6b54db","江苏京源环保股份有限公司","京源环保",,0,"C35","专用设备制造业","江苏","南通市",,,,"C","江苏-南通市",,
"fa4a4e3ad33bb7e86bcd0990c3dfbabc","开普云信息科技股份有限公司","开普云",,0,"I65","软件和信息技术服务业","广东","东莞市",,,,"I","广东-东莞市",,
"6e7eca2f4020c7280d417f5ac12a0c9a","湖南南新制药股份有限公司","南新制药",,0,"C27","医药制造业","湖南","长沙市",,,,"C","湖南-长沙市",,
"2ba8e1fc6f958f428b2aa9a7954575a5","广州宏晟光电科技股份有限公司","宏晟光电",,0,"C39","计算机、通信和其他电子设备制造业","广东","广州市",,,,"C","广东-广州市",,
"7fa7360fc9bedbf5abc8f522e569fc66","广州禾信仪器股份有限公司","禾信仪器",,0,"C40","仪器仪表制造业","广东","广州市",,,,"C","广东-广州市",,
"687e223e0ddf4e06cfa079d6da9a8d07","广东紫晶信息存储技术股份有限公司","紫晶存储",,0,"C39","计算机、通信和其他电子设备制造业","广东","梅州市",,,,"C","广东-梅州市",,
"0bf5c47ed7b042b02dfa55131541a2f2","华润微电子有限公司首次公开发行股票并在科创板上市","CRM",,0,"C39","计算机、通信和其他电子设备制造业","境外","境外",,,,"C","境外",,
"9fb289fa3e707775cf856c06ee7f114b","北京石头世纪科技股份有限公司","石头科技",,0,"C38","电气机械和器材制造业","北京","海淀区",,,,"C","北京-海淀区",,
"7c4017e40b2e8e423c0693ab34f3d744","百奥泰生物制药股份有限公司","百奥泰",,0,"C27","医药制造业","广东","广州市",,,,"C","广东-广州市",,
"046204c828ec3315a6d66441cfd0eba9","锦州神工半导体股份有限公司","神工股份",,0,"C30","非金属矿物制品业","辽宁","锦州市",,,,"C","辽宁-锦州市",,
"da988f1d9d3c5baf902c8b09865e5ee1","北京华峰测控技术股份有限公司","华峰测控",,0,"C35","专用设备制造业","北京","海淀区",,,,"C","北京-海淀区",,
"9534704034f1945391a1a6fbc1efc534","深圳市道通科技股份有限公司","道通科技",,0,"C39","计算机、通信和其他电子设备制造业","广东","深圳市",,,,"C","广东-深圳市",,
"6bdfaf49466616d04418e40902647986","广州瑞松智能科技股份有限公司","瑞松科技",,0,"C35","专用设备制造业","广东","广州市",,,,"C","广东-广州市",,
"447842a3d8ac3ad09a42b0a069f2ed1f","北京映翰通网络技术股份有限公司","映翰通",,0,"C39","计算机、通信和其他电子设备制造业","北京","朝阳区",,,,"C","北京-朝阳区",,
"f8146b3ad3dbe86678829f6121240e40","福建赛特新材股份有限公司","赛特新材",,0,"C30","非金属矿物制品业","福建","龙岩市",,,,"C","福建-龙岩市",,
"efac23c37c3e2f3165ad3c1237100dcc","张家港广大特材股份有限公司","广大特材",,0,"C33","金属制品业","江苏","苏州市",,,,"C","江苏-苏州市",,
"7bd0658e977665bb31cded984aace2a7","深圳市有方科技股份有限公司","有方科技",,0,"C39","计算机、通信和其他电子设备制造业","广东","深圳市",,,,"C","广东-深圳市",,
"be33a9bb3f63cce6a9c78e8f7930d577","苏州泽璟生物制药股份有限公司","泽璟制药",,0,"C27","医药制造业","江苏","苏州市",,,,"C","江苏-苏州市",,
"338beea7c79a051c4e57ebed644a2044","浙江东方基因生物制品股份有限公司","东方基因",,0,"C27","医药制造业","浙江","湖州市",,,,"C","浙江-湖州市",,
"ef73218971c141beb5283f47a748d44e","优刻得科技股份有限公司","优刻得",,0,"I64","互联网和相关服务","上海","杨浦区",,,,"I","上海-杨浦区",,
"3e2e229ec1851a34465e411dd3709aad","广州洁特生物过滤股份有限公司","洁特生物",,0,"C29","橡胶和塑料制品业","广东","广州市",,,,"C","广东-广州市",,
"90bc4da1402a630da53df09808463b74","威胜信息技术股份有限公司","威胜信息",,0,"C39","计算机、通信和其他电子设备制造业","湖南","长沙市",,,,"C","湖南-长沙市",,
"1a5618bcdd9828e18f0781ae1a115095","厦门特宝生物工程股份有限公司","特宝生物",,0,"C27","医药制造业","福建","厦门市",,,,"C","福建-厦门市",,
"8b735e07579354bdba154222a2a607cf","南京万德斯环保科技股份有限公司","万德斯",,0,"N77","生态保护和环境治理业","江苏","南京市",,,,"N","江苏-南京市",,
"45733e4e92a992c08bf83f60fe3cd055","绍兴兴欣新材料股份有限公司","兴欣新材",,0,"C26","化学原料和化学制品制造业","浙江","绍兴市",,,,"C","浙江-绍兴市",,
"66f6cd288aaefcae884fc26f2f1f3685","北京八亿时空液晶科技股份有限公司","八亿时空",,0,"C39","计算机、通信和其他电子设备制造业","北京","房山区",,,,"C","北京-房山区",,
"e74700a7694df376c4bb9fa5f0071658","武汉兴图新科电子股份有限公司首次公开发行股票并在科创板上市项目","兴图新科",,0,"C39","计算机、通信和其他电子设备制造业","湖北","武汉市",,,,"C","湖北-武汉市",,
"d923a73a900c8c65dd042911f2f2baf6","上海拓璞数控科技股份有限公司","上海拓璞",,0,"C34","通用设备制造业","上海","闵行区",,,,"C","上海-闵行区",,
"c087a28df374a6d82df71f5cf2e65df3","北京龙软科技股份有限公司","龙软科技",,0,"I65","软件和信息技术服务业","北京","海淀区",,,,"I","北京-海淀区",,
"ea93d4b69e86e4368f46975ce7f59719","广东华特气体股份有限公司","华特股份",,0,"C26","化学原料和化学制品制造业","广东","佛山市",,,,"C","广东-佛山市",,
"21954d64f9f0fd7c8d52ef3d756c66c9","江苏浩欧博生物医药股份有限公司","浩欧博",,0,"C27","医药制造业","江苏","苏州市",,,,"C","江苏-苏州市",,
"4f94f17a5b0f3badec85cc1fccf02649","江苏卓易信息科技股份有限公司","卓易科技",,-999,"I65","软件和信息技术服务业","江苏","无锡市",,,,"I","江苏-无锡市",,
"bbda549a7d63140b54670c11ef9bb460","聚辰半导体股份有限公司","聚辰股份",,0,"C39","计算机、通信和其他电子设备制造业","上海","浦东新区",,,,"C","上海-浦东新区",,
"835e7cc7a22d64a63b001881b2d71f01","嘉必优生物技术（武汉）股份有限公司首次公开发行股票并在科创板上市","嘉必优",,0,"C14","食品制造业","湖北","武汉市",,,,"C","湖北-武汉市",,
"8754c3de0c619ebf1b0283d9ca689e91","安翰科技科创板IPO项目","安翰科技",,0,"C35","专用设备制造业","湖北","武汉市",,,,"C","湖北-武汉市",,
"f1900fe35c7745361e73a70be8e12c3d","江西金达莱环保股份有限公司","金达莱",,0,"N77","生态保护和环境治理业","江西","南昌市",,,,"N","江西-南昌市",,
"75c85fb362a11cbe4f74e5cbd5e9bb63","杭州当虹科技股份有限公司","当虹科技",,0,"I65","软件和信息技术服务业","浙江","杭州市",,,,"I","浙江-杭州市",,
"9df4129e36560cac907bf83d55af86f5","沈阳芯源微电子设备股份有限公司","芯源微",,0,"C35","专用设备制造业","辽宁","沈阳市",,,,"C","辽宁-沈阳市",,
"959fe2f9ea28db66a8953c868c1829a7","广州佛朗斯股份有限公司","佛朗斯",,0,"L71","租赁业","广东","广州市",,,,"L","广东-广州市",,
"a6c7b86d56e07bb25229d6787bf2b879","博拉网络股份有限公司","博拉网络",,0,"I64","互联网和相关服务","重庆","渝北区",,,,"I","重庆-渝北区",,
"1307f81bf8e580ccf939d1e9a22c37d7","先临三维科技股份有限公司","先临三维",,0,"C34","通用设备制造业","浙江","杭州市",,,,"C","浙江-杭州市",,
"0827bb379d2e9e8d86193e988a06524b","上海赛伦生物技术股份有限公司","赛伦生物",,0,"C27","医药制造业","上海","青浦区",,,,"C","上海-青浦区",,
"438e95d007e982d6750959d5db54a01e","江苏北人机器人系统股份有限公司","江苏北人",,0,"C35","专用设备制造业","江苏","苏州市",,,,"C","江苏-苏州市",,
"54207e90c7f0b19eb6f2e7c08cb4dad4","北京佰仁医疗科技股份有限公司","佰仁医疗",,0,"C35","专用设备制造业","北京","昌平区",,,,"C","北京-昌平区",,
"bb317181907d1a649d6d208db5bed6ab","江苏硕世生物科技股份有限公司","硕世生物",,0,"C27","医药制造业","江苏","泰州市",,,,"C","江苏-泰州市",,
"431b742cf5863e5042ab4d6f3fba2cbf","普元信息技术股份有限公司","普元信息",,0,"I65","软件和信息技术服务业","上海","浦东新区",,,,"I","上海-浦东新区",,
"613c97d30616d11a02ce416fd0b79eb7","中联云港数据科技股份有限公司","中联数据",,0,"I64","互联网和相关服务","北京","门头沟区",,,,"I","北京-门头沟区",,
"e0b7339b3b819bb99424dccad9c20c79","洛阳建龙微纳新材料股份有限公司","建龙微纳",,0,"C26","化学原料和化学制品制造业","河南","洛阳市",,,,"C","河南-洛阳市",,
"6495ffaf1030f565cae62b6c5a3a9ee3","迈得医疗工业设备股份有限公司","迈得医疗",,0,"C35","专用设备制造业","浙江","台州市",,,,"C","浙江-台州市",,
"fccd17797afa2518c30664597ef52b47","无锡祥生医疗科技股份有限公司","祥生医疗",,0,"C35","专用设备制造业","江苏","无锡市",,,,"C","江苏-无锡市",,
"9390d4b207afbc230fe4a62447cbfdd8","深圳清溢光电股份有限公司","清溢光电",,0,"C39","计算机、通信和其他电子设备制造业","广东","深圳市",,,,"C","广东-深圳市",,
"050f81d10676da44d27cf1eca3433562","北京金山办公软件股份有限公司","金山办公",,0,"I65","软件和信息技术服务业","北京","海淀区",,,,"I","北京-海淀区",,
"4342c1b0163f8e599450838a1633532b","二十一世纪空间技术应用股份有限公司","世纪空间",,0,"I65","软件和信息技术服务业","北京","海淀区",,,,"I","北京-海淀区",,
"ed0cae613578c10c10bb89292cb2c09e","华夏天信智能物联股份有限公司","华夏天信",,0,"C35","专用设备制造业","山东","青岛市",,,,"C","山东-青岛市",,
"ccd229e12f7991d12c490d74eaa12a75","广东利元亨智能装备股份有限公司","利元亨",,0,"C35","专用设备制造业","广东","惠州市",,,,"C","广东-惠州市",,
"67ae8a62382068ca861f9bf978ff7def","龙迅半导体（合肥）股份有限公司","龙迅股份",,0,"C39","计算机、通信和其他电子设备制造业","安徽","合肥市",,,,"C","安徽-合肥市",,
"882e6f519578a121b184c213c8a2125b","大庆华理生物技术股份有限公司","华理生物",,0,"C26","化学原料和化学制品制造业","黑龙江","大庆市",,,,"C","黑龙江-大庆市",,
"23eab7a6738b1a5d51e67878bb160168","北京航空材料研究院股份有限公司","航材股份",,0,"C37","铁路、船舶、航空航天和其他运输设备制造业","北京","海淀区",,,,"C","北京-海淀区",,
"81013b13e7f908041cbf72b63fb02592","武汉逸飞激光股份有限公司","逸飞激光",,0,"C35","专用设备制造业","湖北","武汉市",,,,"C","湖北-武汉市",,
"d3cbc410f16e5449c6adfa202742971b","南京茂莱光学科技股份有限公司科创板IPO","茂莱光学",,0,"C40","仪器仪表制造业","江苏","南京市",,,,"C","江苏-南京市",,
"41aaa9c8d98b226550fd3866e2d524f3","裕太微电子股份有限公司","裕太微",,0,"C39","计算机、通信和其他电子设备制造业","江苏","苏州市",,,,"C","江苏-苏州市",,
"34fe47eeac618958a194a8ea659e2419","重庆西山科技股份有限公司","西山科技",,0,"C35","专用设备制造业","重庆","渝北区",,,,"C","重庆-渝北区",,
"219a8cc35c13dbe27263251728ce2046","江西国科军工集团股份有限公司","国科军工",,0,"C41","其他制造业","江西","南昌市",,,,"C","江西-南昌市",,
"0a6bcc1622a9c0afc9d3800e66b17976","深圳佰维存储科技股份有限公司","佰维存储",,0,"C39","计算机、通信和其他电子设备制造业","广东","深圳市",,,,"C","广东-深圳市",,
"dc461ee9cada1ae6ea239fcb0057694d","星环信息科技（上海）股份有限公司","星环科技",,0,"I65","软件和信息技术服务业","上海","徐汇区",,,,"I","上海-徐汇区",,
"993e4fb16a818c18e84d9e45dac05139","北京全式金生物技术股份有限公司","全式金",,0,"M73","研究和试验发展","北京","海淀区",,,,"M","北京-海淀区",,
"5c30f47a1bed083df043337bdc49e7bc","上海南芯半导体科技股份有限公司","南芯科技",,0,"C39","计算机、通信和其他电子设备制造业","上海","浦东新区",,,,"C","上海-浦东新区",,
"43a7a3696db09b9366a32c27deca1ec6","陕西源杰半导体科技股份有限公司","源杰科技",,0,"C39","计算机、通信和其他电子设备制造业","陕西","西安市",,,,"C","陕西-西安市",,
"9de927d59f3829c74107a0fd6c8e8e6a","中邮科技股份有限公司","中邮科技",,0,"C34","通用设备制造业","上海","普陀区",,,,"C","上海-普陀区",,
"635ac99c36fb22d5a81ba8373fb2ea7e","重庆智翔金泰生物制药股份有限公司","智翔金泰",,0,"C27","医药制造业","重庆","巴南区",,,,"C","重庆-巴南区",,
"43ad0f7cf9f8744d707627633b5f905a","三达膜环境技术股份有限公司","三达膜",,0,"C35","专用设备制造业","陕西","延安市",,,,"C","陕西-延安市",,
"74effb8cc7226251239f6546ad938ab7","苏州清越光电科技股份有限公司","清越科技",,0,"C39","计算机、通信和其他电子设备制造业","江苏","苏州市",,,,"C","江苏-苏州市",,
"e443766795d2ea1057c28d05e61a57fe","上海毕得医药科技股份有限公司","毕得医药",,0,"M73","研究和试验发展","上海","杨浦区",,,,"M","上海-杨浦区",,
"f42680163a7b0799db2dff1d15cdd988","申联生物医药（上海）股份有限公司","申联生物",,-999,"C27","医药制造业","上海","闵行区",,,,"C","上海-闵行区",,
"c699ad4cab9605a22edc1046e63c7b76","江苏联瑞新材料股份有限公司","联瑞新材",,0,"C30","非金属矿物制品业","江苏","连云港市",,,,"C","江苏-连云港市",,
"c053ad8a43692b0fcc9c71222fbe353b","深圳普门科技股份有限公司","普门科技",,0,"C27","医药制造业","广东","深圳市",,,,"C","广东-深圳市",,
"4532003fbcdb1887174f6b496d054312","杭州鸿泉物联网技术股份有限公司","鸿泉物联",,0,"C39","计算机、通信和其他电子设备制造业","浙江","杭州市",,,,"C","浙江-杭州市",,
"a51f4569fefd04979d4826d3ae513cae","杭州安恒信息技术股份有限公司","安恒信息",,0,"I65","软件和信息技术服务业","浙江","杭州市",,,,"I","浙江-杭州市",,
"130c5d154aab6ac4bb83bdb222f2bfb5","龙岩卓越新能源股份有限公司","卓越新能",,0,"C42","废弃资源综合利用业","福建","龙岩市",,,,"C","福建-龙岩市",,
"b5c4b7c484757bba42e01359a8d8dffa","中国电器科学研究院股份有限公司","中国电器",,0,"M74","专业技术服务业","广东","广州市",,,,"M","广东-广州市",,
"13bd31a6a7df37bc0fccadf83521549f","天津久日新材料股份有限公司","久日新材",,0,"C26","化学原料和化学制品制造业","天津","北辰区",,,,"C","天津-北辰区",,
"c5f02a595e235105a5ddbaa9ea116232","博瑞生物医药（苏州）股份有限公司","博瑞医药",,0,"C27","医药制造业","江苏","苏州市",,,,"C","江苏-苏州市",,
"0485ed74e35f2b3d91574ecc474cd1ac","山东奥福环保科技股份有限公司","奥福环保",,0,"C35","专用设备制造业","山东","德州市",,,,"C","山东-德州市",,
"e0948d30df954d284510f75141ae2bbf","宁波长阳科技股份有限公司","长阳科技",,0,"C29","橡胶和塑料制品业","浙江","宁波市",,,,"C","浙江-宁波市",,
"44f4c68b2757fb917256101ff4359993","上海美迪西生物医药股份有限公司","美迪西",,0,"M73","研究和试验发展","上海","浦东新区",,,,"M","上海-浦东新区",,
"36f7fd9a58625ad22c4e7244e23530ab","上海昊海生物科技股份有限公司","昊海生科",,0,"C27","医药制造业","上海","松江区",,,,"C","上海-松江区",,
"2d3df47193c1508163f8e599090b65c8","北京致远互联软件股份有限公司","致远互联",,0,"I65","软件和信息技术服务业","北京","海淀区",,,,"I","北京-海淀区",,
"1659542c0dc4be10fe2ab7e9ba76200a","北京宝兰德软件股份有限公司","宝兰德",,0,"I65","软件和信息技术服务业","北京","海淀区",,,,"I","北京-海淀区",,
"c2bc2960b1ea7a43e01338b25d304dd7","深圳市杰普特光电股份有限公司","杰普特",,0,"C39","计算机、通信和其他电子设备制造业","广东","深圳市",,,,"C","广东-深圳市",,
"5de0df37eac2a27853526095307b9580","华熙生物科技股份有限公司","华熙生物",,0,"C27","医药制造业","山东","济南市",,,,"C","山东-济南市",,
"87c205da1659378bdb4c24c9cdf74755","赛诺医疗科学技术股份有限公司","赛诺医疗",,0,"C35","专用设备制造业","天津","滨海新区",,,,"C","天津-滨海新区",,
"36513944b7695a1ad30ca9011d34b389","上海泰坦科技股份有限公司","泰坦科技",,0,"M73","研究和试验发展","上海","徐汇区",,,,"M","上海-徐汇区",,
"82ddf618d145650d1eb91f6b238420fe","青岛海尔生物医疗股份有限公司","海尔生物",,0,"C35","专用设备制造业","山东","青岛市",,,,"C","山东-青岛市",,
"21f826c3cc9ace18b23a5de689b9ce68","光通天下网络科技股份有限公司","光通天下",,0,"I65","软件和信息技术服务业","浙江","金华市",,,,"I","浙江-金华市",,
"a6c685d1fc233ca958a1a2c2e4f90c49","北京连山科技股份有限公司","连山科技",,0,"I65","软件和信息技术服务业","北京","顺义区",,,,"I","北京-顺义区",,
"dd0ab6ba04555f597dd598edd56d94f5","上海晶丰明源半导体股份有限公司","晶丰明源",,0,"I65","软件和信息技术服务业","上海","浦东新区",,,,"I","上海-浦东新区",,
"4e8a6e7898175ae1dbc3756fc4e6775d","深圳传音控股股份有限公司","传音控股",,0,"C39","计算机、通信和其他电子设备制造业","广东","深圳市",,,,"C","广东-深圳市",,
"0e5d5dd59d272c0e97b2d583fcb7d716","北京国科环宇科技股份有限公司","国科环宇",,0,"C37","铁路、船舶、航空航天和其他运输设备制造业","北京","海淀区",,,,"C","北京-海淀区",,
"2724077941dac0f8aa381a3f5797a404","北京热景生物技术股份有限公司","热景生物",,0,"C27","医药制造业","北京","大兴区",,,,"C","北京-大兴区",,
"055b6db5c03877bd97d484f011bd5bbf","山石网科通信技术股份有限公司","山石网科",,0,"I65","软件和信息技术服务业","江苏","苏州市",,,,"I","江苏-苏州市",,
"36d5817d4a59005d72b69e0556c9d5e5","恒安嘉新（北京）科技股份公司","恒安嘉新",,0,"I65","软件和信息技术服务业","北京","海淀区",,,,"I","北京-海淀区",,
"5976e2eee026bc62d57c06c27c81616e","江苏天奈科技股份有限公司","天奈科技",,0,"C26","化学原料和化学制品制造业","江苏","镇江市",,,,"C","江苏-镇江市",,
"605f1c586c699d5ed5ad2baee380cf19","视联动力信息技术股份有限公司","视联动力",,0,"C39","计算机、通信和其他电子设备制造业","北京","东城区",,,,"C","北京-东城区",,
"e3e4f290c4147a9a032f3a7346c39ea5","成都苑东生物制药股份有限公司","苑东生物",,0,"C27","医药制造业","四川","成都市",,,,"C","四川-成都市",,
"388f0752fe521f2100f106cc493a4659","上海新数网络科技股份有限公司","新数网络",,0,"I64","互联网和相关服务","上海","嘉定区",,,,"I","上海-嘉定区",,
"865b1eee4d424ccefbbb7bf6b3683011","北京安博通科技股份有限公司","安博通",,0,"I65","软件和信息技术服务业","北京","西城区",,,,"I","北京-西城区",,
"6455ecd9918bf11aa4bf48bedda916c4","深圳市贝斯达医疗股份有限公司","贝斯达",,0,"C35","专用设备制造业","广东","深圳市",,,,"C","广东-深圳市",,
"55093e978d60352bc7d5cef75dd06297","北京海天瑞声科技股份有限公司","海天瑞声",,0,"I65","软件和信息技术服务业","北京","海淀区",,,,"I","北京-海淀区",,
"8438bb20300c817eb46a7847550b92cc","北京诺康达医药科技股份有限公司","诺康达",,0,"M73","研究和试验发展","北京","大兴区",,,,"M","北京-大兴区",,
"47f108a2cf63bc33c3d9cd90bf6a011c","和舰芯片制造（苏州）股份有限公司","和舰芯片",,0,"C39","计算机、通信和其他电子设备制造业","江苏","苏州市",,,,"C","江苏-苏州市",,
"2ef49a9e0b6e66e7a0ea312f407aab2e","深圳微芯生物科技股份有限公司","微芯生物",,0,"C27","医药制造业","广东","深圳市",,,,"C","广东-深圳市",,
"270a38f91874e23c5fca465ccffb3bd6","晶晨半导体（上海）股份有限公司","晶晨股份",,0,"C39","计算机、通信和其他电子设备制造业","上海","浦东新区",,,,"C","上海-浦东新区",,
"7009dc65e64c9b83bc1e7eea205fa092","上海柏楚电子科技股份有限公司","柏楚电子",,0,"I65","软件和信息技术服务业","上海","闵行区",,,,"I","上海-闵行区",,
"feea7f1ff35d1df422c3de4992ed411e","北京木瓜移动科技股份有限公司","木瓜移动",,0,"I64","互联网和相关服务","北京","海淀区",,,,"I","北京-海淀区",,
"1644d3177e19bc6e8adb8baea86ae964","交控科技股份有限公司","交控科技",,0,"C37","铁路、船舶、航空航天和其他运输设备制造业","北京","丰台区",,,,"C","北京-丰台区",,
"6286f109edc37bfa68440cbbfb21b583","北京航天宏图信息技术股份有限公司","航天宏图",,0,"I65","软件和信息技术服务业","北京","海淀区",,,,"I","北京-海淀区",,
"11e4b925fffa4b6c6898c167d2042c6c","广东嘉元科技股份有限公司","嘉元科技",,0,"C39","计算机、通信和其他电子设备制造业","广东","梅州市",,,,"C","广东-梅州市",,
"efe171625470daa818a91157e8e5f07a","北京沃尔德金刚石工具股份有限公司","沃尔德",,0,"C35","专用设备制造业","北京","朝阳区",,,,"C","北京-朝阳区",,
"5aa34351fe626efd95d8ebb9d3218c2c","广州方邦电子股份有限公司","方邦电子",,0,"C39","计算机、通信和其他电子设备制造业","广东","广州市",,,,"C","广东-广州市",,
"9e797230f93cc1a457d032538a04b08d","北京天宜上佳高新材料股份有限公司","天宜上佳",,0,"C37","铁路、船舶、航空航天和其他运输设备制造业","北京","海淀区",,,,"C","北京-海淀区",,
"c592dc784b2db7ad6585301f6afcd0f9","苏州瀚川智能科技股份有限公司","瀚川智能",,0,"C35","专用设备制造业","江苏","苏州市",,,,"C","江苏-苏州市",,
"7698c5b1c4a1b2dffa6937c253c08e14","虹软科技股份有限公司","虹软科技",,0,"I65","软件和信息技术服务业","浙江","杭州市",,,,"I","浙江-杭州市",,
"7933fc8c762907e54f581d76d27b2db9","南京微创医学科技股份有限公司","南微医学",,0,"C35","专用设备制造业","江苏","南京市",,,,"C","江苏-南京市",,
"2394c3b17a94b1725630ccfda277fea6","上海微创心脉医疗科技股份有限公司","心脉医疗",,0,"C35","专用设备制造业","上海","浦东新区",,,,"C","上海-浦东新区",,
"965dcc767449ed3ef3a3a387cc8329c8","宁波容百新能源科技股份有限公司","容百科技",,0,"C39","计算机、通信和其他电子设备制造业","浙江","宁波市",,,,"C","浙江-宁波市",,
"6b82ebfca69429051374f69a6877138f","哈尔滨新光光电科技股份有限公司","新光光电",,0,"C39","计算机、通信和其他电子设备制造业","黑龙江","哈尔滨市",,,,"C","黑龙江-哈尔滨市",,
"ffd2672fa7063e117960f0fd7b15ffd1","西部超导材料科技股份有限公司","西部超导",,0,"C32","有色金属冶炼和压延加工业","陕西","西安市",,,,"C","陕西-西安市",,
"1b01b0c82b7598ff103a8982c04e85bf","福建福光股份有限公司首次公开发行股票并在科创板上市","福光股份",,0,"C40","仪器仪表制造业","福建","福州市",,,,"C","福建-福州市",,
"10296459cc3f711d6acfdf659cd95243","安集微电子科技（上海）股份有限公司","安集科技",,0,"C39","计算机、通信和其他电子设备制造业","上海","浦东新区",,,,"C","上海-浦东新区",,
"b5f74876e544e4d8990f8d1fcafa703c","中微半导体设备（上海）股份有限公司","中微公司",,0,"C35","专用设备制造业","上海","浦东新区",,,,"C","上海-浦东新区",,
"100847155926d4a717fa0272832ff58e","西安铂力特增材技术股份有限公司","铂力特",,0,"C34","通用设备制造业","陕西","西安市",,,,"C","陕西-西安市",,
"41152967171b4fdafe6717516d4cfe82","乐鑫信息科技（上海）股份有限公司","乐鑫科技",,0,"C39","计算机、通信和其他电子设备制造业","上海","浦东新区",,,,"C","上海-浦东新区",,
"7a512f87ad922cc92a38f09749bf5ac4","深圳光峰科技股份有限公司","光峰科技",,0,"C39","计算机、通信和其他电子设备制造业","广东","深圳市",,,,"C","广东-深圳市",,
"c4cc50a95372dac466edc005fe38c2a8","中国铁路通信信号股份有限公司","中国通号",,0,"C37","铁路、船舶、航空航天和其他运输设备制造业","北京","丰台区",,,,"C","北京-丰台区",,
"56fd858b985c30c7063c3712f1a90a7f","澜起科技股份有限公司","澜起科技",,0,"C39","计算机、通信和其他电子设备制造业","上海","徐汇区",,,,"C","上海-徐汇区",,
"3e904265468b1d4f038bf1f745103936","浙江杭可科技股份有限公司","杭可科技",,0,"C35","专用设备制造业","浙江","杭州市",,,,"C","浙江-杭州市",,
"95f065485b18ba9829862410f2d9fad8","苏州天准科技股份有限公司","天准科技",,0,"C35","专用设备制造业","江苏","苏州市",,,,"C","江苏-苏州市",,
"267f5b407a2bbe231ed67b41c792e6aa","苏州华兴源创科技股份有限公司","华兴源创",,0,"C35","专用设备制造业","江苏","苏州市",,,,"C","江苏-苏州市",,
"ba0dd08d86347e6106efe7353294221d","烟台睿创微纳技术股份有限公司","睿创微纳",,0,"C39","计算机、通信和其他电子设备制造业","山东","烟台市",,,,"C","山东-烟台市",,
"76920d66e0879f361275ab36d6c943dd","无锡硅动力微电子股份有限公司","硅动力",,0,"C39","计算机、通信和其他电子设备制造业","江苏","无锡市",,,,"C","江苏-无锡市",,
"88e97d78c2b7535338fa64a9d3b7bf23","广东天承科技股份有限公司","天承科技",,0,"C26","化学原料和化学制品制造业","广东","广州市",,,,"C","广东-广州市",,
"721afa46d0471461c634dfe726e000fb","轩竹生物科技股份有限公司","轩竹生物",,0,"C27","医药制造业","河北","石家庄市",,,,"C","河北-石家庄市",,
"3034538a2760e9dd17d8124864274378","河南惠强新能源材料科技股份有限公司","惠强新材",,0,"C29","橡胶和塑料制品业","河南","驻马店市",,,,"C","河南-驻马店市",,
"bb878c9494b013280899c96fcde56858","深圳市爱康生物科技股份有限公司","爱康生物",,0,"C35","专用设备制造业","广东","深圳市",,,,"C","广东-深圳市",,
"08a70e9f440b3ac3d964a3133205813a","西安中核核仪器股份有限公司","中核西仪",,0,"C35","专用设备制造业","陕西","西安市",,,,"C","陕西-西安市",,
"c5775fa9671adc5292633200739e110b","江苏艾森半导体材料股份有限公司","艾森股份",,0,"C39","计算机、通信和其他电子设备制造业","江苏","苏州市",,,,"C","江苏-苏州市",,
"46063c649630015f4238161061b4baad","深圳飞骧科技股份有限公司","飞骧科技",,0,"C39","计算机、通信和其他电子设备制造业","广东","深圳市",,,,"C","广东-深圳市",,
"2852c5d1ba3ebbd781ab9e044d3d5fd7","上海恒润达生生物科技股份有限公司","恒润达生",,0,"C27","医药制造业","上海","浦东新区",,,,"C","上海-浦东新区",,
"1b25cc3ba5fea6934cbfa18e2e20a9b4","山东百多安医疗器械股份有限公司","百多安",,0,"C35","专用设备制造业","山东","德州市",,,,"C","山东-德州市",,
"5d61b34dfbe72b35c2d29107611f2640","哈尔滨思哲睿智能医疗设备股份有限公司科创板首次公开发行股票","思哲睿",,0,"C35","专用设备制造业","黑龙江","哈尔滨市",,,,"C","黑龙江-哈尔滨市",,
"e5738262e9e4449e8c8641eb06957558","华虹半导体有限公司","华虹宏力",,0,"C39","计算机、通信和其他电子设备制造业","境外","境外",,,,"C","境外",,
"07b086cc5769ebf24984799fc6b754ac","成都四方伟业软件股份有限公司","四方伟业",,0,"I65","软件和信息技术服务业","四川","成都市",,,,"I","四川-成都市",,
"b8283d7548d8cd83df3490b35c805cbc","蜂巢能源科技股份有限公司","蜂巢能源",,0,"C38","电气机械和器材制造业","江苏","常州市",,,,"C","江苏-常州市",,
"06c7f50c36ea9769b929593d2fb16466","南通联亚药业股份有限公司","联亚药业",,0,"C27","医药制造业","江苏","南通市",,,,"C","江苏-南通市",,
"4b1d4d55c23d7861ed7b1197efb24b29","纵目科技（上海）股份有限公司","纵目科技",,0,"C39","计算机、通信和其他电子设备制造业","上海","浦东新区",,,,"C","上海-浦东新区",,
"62c67c44b3a00a73390f87a34c4693cc","上海健耕医药科技股份有限公司","健耕医药",,0,"C35","专用设备制造业","上海","闵行区",,,,"C","上海-闵行区",,
"0c28654168b78c7911ff269efd2b8f1a","宁波奥拉半导体股份有限公司","奥拉股份",,0,"I65","软件和信息技术服务业","浙江","宁波市",,,,"I","浙江-宁波市",,
"9dd9103f7edfaba82fdeb2c07cbb7417","得一微电子股份有限公司","得一微",,0,"I65","软件和信息技术服务业","广东","深圳市",,,,"I","广东-深圳市",,
"1a5c59f6e6f1c1120a3b2d8e54cd8ec6","北京京仪自动化装备技术股份有限公司","京仪装备",,0,"C35","专用设备制造业","北京","大兴区",,,,"C","北京-大兴区",,
"1a6ce5041692442298f596db01be8845","西安爱科赛博电气股份有限公司","爱科赛博",,0,"C38","电气机械和器材制造业","陕西","西安市",,,,"C","陕西-西安市",,
"58215f35bac7350c44a8e46c4bd0028f","中钢集团马鞍山矿山研究总院股份有限公司","中钢矿院",,0,"M74","专业技术服务业","安徽","马鞍山市",,,,"M","安徽-马鞍山市",,
"9c4fbf69ccdcbe32dfd3a27fb75ff471","灿芯半导体（上海）股份有限公司","灿芯股份",,0,"I65","软件和信息技术服务业","上海","浦东新区",,,,"I","上海-浦东新区",,
"4747f1205ce4da2cad9bf6c4d2af0055","格兰康希通信科技（上海）股份有限公司","康希通信",,0,"C39","计算机、通信和其他电子设备制造业","上海","浦东新区",,,,"C","上海-浦东新区",,
"f2356ff7ecca90d08ba65ed431608106","深圳善康医药科技股份有限公司","善康医药",,0,"C27","医药制造业","广东","深圳市",,,,"C","广东-深圳市",,
"4836665f70d111b503a0eda3cc883eec","广州广钢气体能源股份有限公司","广钢气体",,0,"C39","计算机、通信和其他电子设备制造业","广东","广州市",,,,"C","广东-广州市",,
"33088fe7973de55db5f2fb9ed579cd69","长光卫星技术股份有限公司","长光卫星",,0,"I65","软件和信息技术服务业","吉林","长春市",,,,"I","吉林-长春市",,
"71192a0f662c3e1c618069e057f60259","联芸科技（杭州）股份有限公司","联芸科技",,0,"C39","计算机、通信和其他电子设备制造业","浙江","杭州市",,,,"C","浙江-杭州市",,
"a6a8f59e0ce6efa2aa10212be28e33c7","赛卓电子科技（上海）股份有限公司","赛卓电子",,0,"C39","计算机、通信和其他电子设备制造业","上海","浦东新区",,,,"C","上海-浦东新区",,
"ea22472c54260c1895ab5791e6964163","中电科思仪科技股份有限公司","思仪科技",,0,"C40","仪器仪表制造业","山东","青岛市",,,,"C","山东-青岛市",,
"655f4b39674a7b32956fb7177fb05c8b","武汉禾元生物科技股份有限公司","禾元生物",,0,"C27","医药制造业","湖北","武汉市",,,,"C","湖北-武汉市",,
"6980ba5ded18c3f8ec5f89dc0d125ea2","杭州华澜微电子股份有限公司","华澜微",,0,"I65","软件和信息技术服务业","浙江","杭州市",,,,"I","浙江-杭州市",,
"3d4fabd83cc15256465ce769c82126b6","南京轩凯生物科技股份有限公司","轩凯生物",,0,"C26","化学原料和化学制品制造业","江苏","南京市",,,,"C","江苏-南京市",,
"cc6ad998b95bd7894b047dd6aa190d52","上海合晶硅材料股份有限公司","上海合晶",,0,"C39","计算机、通信和其他电子设备制造业","上海","松江区",,,,"C","上海-松江区",,
"90ead1edb98b921d97ab37ecaf0a136b","佰聆数据股份有限公司","佰聆数据",,0,"I64","互联网和相关服务","广东","广州市",,,,"I","广东-广州市",,
"9b8ef73ab8008b103a2327b5f90f6610","广东欧莱高新材料股份有限公司","欧莱新材",,0,"C39","计算机、通信和其他电子设备制造业","广东","韶关市",,,,"C","广东-韶关市",,
"ded2e94c07848665187ea002ccd2ed75","上海益诺思生物技术股份有限公司","益诺思",,0,"M73","研究和试验发展","上海","浦东新区",,,,"M","上海-浦东新区",,
"2ebc6685114c280afaa7161f9d2e46e9","渔翁信息技术股份有限公司","渔翁信息",,0,"I65","软件和信息技术服务业","山东","威海市",,,,"I","山东-威海市",,
"7330782ccedb973785f84a860000af8d","河北金力新能源科技股份有限公司","金力股份",,0,"C29","橡胶和塑料制品业","河北","邯郸市",,,,"C","河北-邯郸市",,
"195acf795dacdc96fff67554eae3635e","上海晋飞碳纤科技股份有限公司","晋飞碳纤",,0,"C30","非金属矿物制品业","上海","浦东新区",,,,"C","上海-浦东新区",,
"182658b8a11e28dccb933289ad3fb296","北京明朝万达科技股份有限公司","明朝万达",,0,"I65","软件和信息技术服务业","北京","海淀区",,,,"I","北京-海淀区",,
"9ca67e04f5177cf6be684e58ca6bfae2","苏州赛分科技股份有限公司","赛分科技",,0,"C26","化学原料和化学制品制造业","江苏","苏州市",,,,"C","江苏-苏州市",,
"b93556b27365d08af8688fa01afb8d49","沃太能源股份有限公司","沃太能源",,0,"C38","电气机械和器材制造业","江苏","南通市",,,,"C","江苏-南通市",,
"37f8c2438141ac18e3657e4f4aba9f4f","飞依诺科技股份有限公司","飞依诺",,0,"C35","专用设备制造业","江苏","苏州市",,,,"C","江苏-苏州市",,
"678356fa67f801416d5096f11196b8e0","中科合成油技术股份有限公司","中科合成",,0,"C26","化学原料和化学制品制造业","北京","怀柔区",,,,"C","北京-怀柔区",,
"1fd12b91cfd91997354be9f5977bdcd3","北京华脉泰科医疗器械股份有限公司","华脉泰科",,0,"C35","专用设备制造业","北京","大兴区",,,,"C","北京-大兴区",,
"e3e8b6063a567e14f07dec3fdc28e21b","苏州锦艺新材料科技股份有限公司","锦艺新材",,0,"C30","非金属矿物制品业","江苏","苏州市",,,,"C","江苏-苏州市",,
"82373c4f60a9df5e2c59a205c9962f0f","苏州绿控传动科技股份有限公司","绿控传动",,0,"C36","汽车制造业","江苏","苏州市",,,,"C","江苏-苏州市",,
"2561fafc54f891d2855dbe9c20863e2c","安徽贝克制药股份有限公司","贝克制药",,0,"C27","医药制造业","安徽","阜阳市",,,,"C","安徽-阜阳市",,
"8a89f4f5c5cb5ab89ecba6d46767367e","北京康美特科技股份有限公司","康美特",,0,"C39","计算机、通信和其他电子设备制造业","北京","海淀区",,,,"C","北京-海淀区",,
"f15a713172e4ac113d714c7b69233908","上海捍宇医疗科技股份有限公司","捍宇医疗",,0,"C35","专用设备制造业","上海","闵行区",,,,"C","上海-闵行区",,
"f615f87c0fbae3d55b08a605420a7b89","常州富烯科技股份有限公司","富烯科技",,0,"C39","计算机、通信和其他电子设备制造业","江苏","常州市",,,,"C","江苏-常州市",,
"9d9e85613c6687a4b1a27f4e9cf2f635","澎立生物医药技术（上海）股份有限公司","澎立生物",,0,"M73","研究和试验发展","上海","浦东新区",,,,"M","上海-浦东新区",,
"1e112c005606ccb69743df74d9d826e6","赛诺威盛科技（北京）股份有限公司","赛诺威盛",,0,"C35","专用设备制造业","北京","大兴区",,,,"C","北京-大兴区",,
"fbb85c4f16c1b4558065bf6f5fec2da2","深圳中兴新材技术股份有限公司","中兴新材",,0,"C29","橡胶和塑料制品业","广东","深圳市",,,,"C","广东-深圳市",,
"519abf7c118342bdfd84f8affc12dd9f","深圳北芯生命科技股份有限公司","北芯生命",,0,"C35","专用设备制造业","广东","深圳市",,,,"C","广东-深圳市",,
"5d88d64afa425755394d17ffb5fed2a3","杭州键嘉医疗科技股份有限公司","键嘉医疗",,0,"C35","专用设备制造业","浙江","杭州市",,,,"C","浙江-杭州市",,
"6031185e1ca1f309fc2bb1c3f468186d","上海爱科百发生物医药技术股份有限公司","爱科百发",,0,"C27","医药制造业","上海","浦东新区",,,,"C","上海-浦东新区",,
"23da43f3bc4ad52c6ffce7099350ba3a","艾柯医疗器械（北京）股份有限公司	","艾柯医疗",,0,"C35","专用设备制造业","北京","顺义区",,,,"C","北京-顺义区",,
